{"type":"FeatureCollection","name":"QPV 2024 Bretagne (ANCT), WGS84","features":[{"type":"Feature","properties":{"code_qp":"QN02201M","lib_qp":"Ar Santé - Les Fontaines","insee_com":"22113","lib_com":"Lannion","insee_dep":"22","siren_epci":"200065928"},"geometry":{"type":"MultiPolygon","coordinates":[[[[-3.446316,48.729993],[-3.446164,48.72998],[-3.446067,48.729905],[-3.445761,48.729424],[-3.445607,48.729118],[-3.445529,48.72888],[-3.445019,48.729182],[-3.44488,48.729216],[-3.444801,48.729203],[-3.444463,48.728818],[-3.444135,48.728573],[-3.443998,48.728421],[-3.443915,48.728249],[-3.443904,48.727202],[-3.44411,48.727007],[-3.444362,48.726748],[-3.444425,48.726717],[-3.444643,48.726421],[-3.445107,48.726519],[-3.445512,48.726557],[-3.445329,48.726773],[-3.445262,48.726978],[-3.445227,48.727246],[-3.445197,48.727342],[-3.445204,48.727458],[-3.445261,48.727711],[-3.445615,48.727665],[-3.445932,48.727662],[-3.446362,48.727142],[-3.446438,48.72709],[-3.446155,48.726956],[-3.445911,48.726747],[-3.445985,48.726682],[-3.446025,48.726592],[-3.446451,48.726444],[-3.446819,48.72638],[-3.447283,48.726309],[-3.448557,48.726119],[-3.449953,48.726075],[-3.451817,48.726021],[-3.451767,48.725705],[-3.451671,48.725506],[-3.452046,48.725402],[-3.452093,48.725488],[-3.452615,48.725403],[-3.452708,48.725308],[-3.453761,48.725687],[-3.453664,48.725798],[-3.454038,48.725964],[-3.454008,48.72603],[-3.453477,48.725997],[-3.451823,48.726021],[-3.451892,48.726408],[-3.451958,48.726625],[-3.452135,48.726893],[-3.45227,48.727145],[-3.450045,48.728208],[-3.45033,48.72847],[-3.450515,48.728386],[-3.450798,48.728663],[-3.451373,48.728388],[-3.451639,48.72862],[-3.451379,48.728751],[-3.451189,48.728833],[-3.451155,48.728866],[-3.451393,48.728972],[-3.451443,48.728981],[-3.45152,48.728939],[-3.45162,48.72903],[-3.45171,48.729111],[-3.452042,48.728953],[-3.452116,48.729034],[-3.451891,48.729147],[-3.452006,48.729273],[-3.451918,48.729301],[-3.452082,48.729376],[-3.452183,48.729473],[-3.451981,48.729523],[-3.451907,48.729529],[-3.451469,48.729547],[-3.451385,48.729638],[-3.450813,48.729879],[-3.450435,48.729983],[-3.450608,48.730152],[-3.450814,48.730167],[-3.450939,48.73021],[-3.451011,48.730255],[-3.451447,48.730149],[-3.451477,48.730141],[-3.451513,48.730141],[-3.451557,48.730162],[-3.451695,48.730235],[-3.451917,48.730062],[-3.452284,48.730288],[-3.451888,48.730544],[-3.451909,48.730561],[-3.451602,48.730793],[-3.451585,48.730785],[-3.45152,48.730834],[-3.451527,48.730843],[-3.451255,48.731045],[-3.451319,48.731077],[-3.451026,48.731297],[-3.451629,48.73178],[-3.451319,48.732004],[-3.4509,48.731699],[-3.450456,48.731351],[-3.44993,48.730966],[-3.449648,48.730745],[-3.449454,48.730524],[-3.449328,48.73032],[-3.449387,48.730285],[-3.450366,48.729995],[-3.450336,48.729948],[-3.450257,48.729769],[-3.450207,48.729596],[-3.44895,48.729707],[-3.447893,48.729812],[-3.446316,48.729993]]]]}},{"type":"Feature","properties":{"code_qp":"QN02202M","lib_qp":"Ker Uhel","insee_com":"22113","lib_com":"Lannion","insee_dep":"22","siren_epci":"200065928"},"geometry":{"type":"MultiPolygon","coordinates":[[[[-3.473188,48.746188],[-3.472384,48.746305],[-3.472296,48.746021],[-3.472222,48.745868],[-3.472038,48.745753],[-3.471535,48.746246],[-3.471218,48.746601],[-3.471216,48.746903],[-3.470883,48.746951],[-3.470277,48.746697],[-3.470264,48.746702],[-3.470122,48.746837],[-3.470009,48.747084],[-3.469765,48.74757],[-3.469824,48.747747],[-3.469821,48.747833],[-3.46967,48.74822],[-3.468928,48.748101],[-3.468453,48.748032],[-3.467894,48.747977],[-3.466823,48.747963],[-3.466824,48.748222],[-3.465678,48.748428],[-3.465009,48.748621],[-3.464489,48.748692],[-3.464325,48.7487],[-3.463505,48.74861],[-3.462968,48.74854],[-3.462637,48.748543],[-3.462436,48.748559],[-3.462098,48.748634],[-3.461659,48.748695],[-3.461081,48.748728],[-3.461589,48.746753],[-3.464667,48.746566],[-3.46494,48.746693],[-3.465734,48.746688],[-3.466679,48.746675],[-3.466643,48.746389],[-3.465895,48.74645],[-3.465874,48.746273],[-3.46586,48.746156],[-3.465836,48.746049],[-3.46582,48.745944],[-3.466249,48.745797],[-3.466015,48.745488],[-3.466678,48.745221],[-3.466725,48.745188],[-3.466866,48.74514],[-3.466979,48.745117],[-3.46701,48.745178],[-3.467129,48.745272],[-3.46725,48.745352],[-3.467394,48.745418],[-3.46755,48.745466],[-3.467724,48.745493],[-3.468854,48.74539],[-3.468963,48.745369],[-3.469052,48.745318],[-3.469286,48.745131],[-3.469398,48.745],[-3.469552,48.744734],[-3.469926,48.744306],[-3.469543,48.744135],[-3.468744,48.743818],[-3.46865,48.74349],[-3.468599,48.743109],[-3.468477,48.743081],[-3.468339,48.743054],[-3.468033,48.74301],[-3.467848,48.74295],[-3.467651,48.742869],[-3.467774,48.742737],[-3.467955,48.742539],[-3.467874,48.742444],[-3.467838,48.742314],[-3.467921,48.742127],[-3.467979,48.742107],[-3.468152,48.741882],[-3.46825,48.741911],[-3.468485,48.741902],[-3.468547,48.741877],[-3.468639,48.741882],[-3.468898,48.74189],[-3.469203,48.741925],[-3.469352,48.741755],[-3.470062,48.74199],[-3.47088,48.742294],[-3.470982,48.742388],[-3.47135,48.742662],[-3.471613,48.742813],[-3.47245,48.743156],[-3.472724,48.743275],[-3.473137,48.742867],[-3.473348,48.742632],[-3.4735,48.742428],[-3.473776,48.74221],[-3.47406,48.742032],[-3.474143,48.742078],[-3.474667,48.742342],[-3.475257,48.74264],[-3.476479,48.743265],[-3.475978,48.743704],[-3.476167,48.743792],[-3.476389,48.743797],[-3.476391,48.74384],[-3.476471,48.743838],[-3.477506,48.743836],[-3.477493,48.743616],[-3.477915,48.743616],[-3.47793,48.744753],[-3.478169,48.744726],[-3.478417,48.74467],[-3.478687,48.744592],[-3.478998,48.744474],[-3.479381,48.744309],[-3.479658,48.744156],[-3.479749,48.744066],[-3.479846,48.744108],[-3.479844,48.744173],[-3.479863,48.744242],[-3.479962,48.744383],[-3.479979,48.744764],[-3.478979,48.744995],[-3.478986,48.745023],[-3.478727,48.745291],[-3.478917,48.745385],[-3.479245,48.745492],[-3.479559,48.745473],[-3.479639,48.746043],[-3.478874,48.746084],[-3.478037,48.745776],[-3.477623,48.745594],[-3.477138,48.745336],[-3.474914,48.743998],[-3.474589,48.744248],[-3.474261,48.744279],[-3.47418,48.744353],[-3.473589,48.744396],[-3.473447,48.744562],[-3.473318,48.744795],[-3.473125,48.745064],[-3.473152,48.745087],[-3.473293,48.74514],[-3.473073,48.745361],[-3.474005,48.745754],[-3.473334,48.746438],[-3.473267,48.746228],[-3.47321,48.746235],[-3.473188,48.746188]]]]}},{"type":"Feature","properties":{"code_qp":"QN02203I","lib_qp":"Croix Saint-Lambert - Ville Oger","insee_com":"22278","lib_com":"Saint-Brieuc","insee_dep":"22","siren_epci":"200069409"},"geometry":{"type":"MultiPolygon","coordinates":[[[[-2.749493,48.499371],[-2.748403,48.499947],[-2.747211,48.500591],[-2.746878,48.500769],[-2.746471,48.500944],[-2.745964,48.501054],[-2.745698,48.501137],[-2.745602,48.501123],[-2.745443,48.501111],[-2.744748,48.500752],[-2.742774,48.499709],[-2.744295,48.498802],[-2.744065,48.498671],[-2.743825,48.498672],[-2.743198,48.498458],[-2.742996,48.498377],[-2.742963,48.498416],[-2.742879,48.498386],[-2.742857,48.498387],[-2.742495,48.498752],[-2.742536,48.4988],[-2.742667,48.498916],[-2.742797,48.499035],[-2.742724,48.499063],[-2.742695,48.499144],[-2.74253,48.499167],[-2.742485,48.499345],[-2.742609,48.499354],[-2.742655,48.499391],[-2.742419,48.499495],[-2.741892,48.499202],[-2.741785,48.499109],[-2.741775,48.498956],[-2.741712,48.498856],[-2.741393,48.498186],[-2.740644,48.498327],[-2.740421,48.498286],[-2.740014,48.498128],[-2.739713,48.497961],[-2.739553,48.49786],[-2.739532,48.497785],[-2.73937,48.497711],[-2.739235,48.497651],[-2.739168,48.497585],[-2.739273,48.497479],[-2.739331,48.497419],[-2.73943,48.497371],[-2.74087,48.497075],[-2.740835,48.497025],[-2.740906,48.497007],[-2.740849,48.496872],[-2.740896,48.496838],[-2.740939,48.496775],[-2.740953,48.496721],[-2.741177,48.496731],[-2.741577,48.496773],[-2.743347,48.497124],[-2.743549,48.497168],[-2.743637,48.497026],[-2.74389,48.496692],[-2.744101,48.496453],[-2.744224,48.496295],[-2.74432,48.496176],[-2.744426,48.496022],[-2.74445,48.495915],[-2.744443,48.495751],[-2.744374,48.495395],[-2.744433,48.49531],[-2.744617,48.4952],[-2.74434,48.495004],[-2.744661,48.494839],[-2.745521,48.494477],[-2.745933,48.494313],[-2.746735,48.494784],[-2.746391,48.495952],[-2.74599,48.496154],[-2.745547,48.495774],[-2.744665,48.495219],[-2.744456,48.495323],[-2.744413,48.495393],[-2.744469,48.495752],[-2.744486,48.495918],[-2.744487,48.496009],[-2.74495,48.496205],[-2.745288,48.496348],[-2.745596,48.496464],[-2.745988,48.496639],[-2.74649,48.496806],[-2.746392,48.496935],[-2.746855,48.496952],[-2.747017,48.496852],[-2.747079,48.496885],[-2.747193,48.496978],[-2.747125,48.497038],[-2.747082,48.497123],[-2.746957,48.497215],[-2.746345,48.497512],[-2.746026,48.497661],[-2.745952,48.497601],[-2.745575,48.497339],[-2.74476,48.49785],[-2.745099,48.498089],[-2.745279,48.498205],[-2.745619,48.498009],[-2.74591,48.497847],[-2.746505,48.497557],[-2.746968,48.497334],[-2.747083,48.497319],[-2.747227,48.497325],[-2.747346,48.497357],[-2.747431,48.497358],[-2.747521,48.497349],[-2.747608,48.497315],[-2.747712,48.497378],[-2.747926,48.497496],[-2.748159,48.497621],[-2.748403,48.497782],[-2.748629,48.497957],[-2.748219,48.498317],[-2.748666,48.498653],[-2.748802,48.498803],[-2.748917,48.498932],[-2.748829,48.499048],[-2.749127,48.499179],[-2.749493,48.499371]]]]}},{"type":"Feature","properties":{"code_qp":"QN02204M","lib_qp":"Le Plateau - Europe - Balzac","insee_com":"22278","lib_com":"Saint-Brieuc","insee_dep":"22","siren_epci":"200069409"},"geometry":{"type":"MultiPolygon","coordinates":[[[[-2.735019,48.516329],[-2.735536,48.515727],[-2.735859,48.515359],[-2.736462,48.514679],[-2.736576,48.51455],[-2.736709,48.514777],[-2.736769,48.515134],[-2.737209,48.515051],[-2.737235,48.515076],[-2.737863,48.514985],[-2.737791,48.514763],[-2.738276,48.514686],[-2.73843,48.514676],[-2.738578,48.514644],[-2.738897,48.514601],[-2.738847,48.514445],[-2.739371,48.514384],[-2.739937,48.513828],[-2.739984,48.51385],[-2.740254,48.513614],[-2.740404,48.513504],[-2.740782,48.513686],[-2.740846,48.513635],[-2.741079,48.513765],[-2.741076,48.513928],[-2.741082,48.514056],[-2.742117,48.514057],[-2.7425,48.514066],[-2.743056,48.514074],[-2.743239,48.514087],[-2.743065,48.513835],[-2.742678,48.512096],[-2.743746,48.512114],[-2.744972,48.512113],[-2.74724,48.512139],[-2.747225,48.512856],[-2.747663,48.512871],[-2.747762,48.512912],[-2.747747,48.512995],[-2.747878,48.513001],[-2.747765,48.51323],[-2.748086,48.513299],[-2.748162,48.513343],[-2.748243,48.513399],[-2.748364,48.513402],[-2.748423,48.513366],[-2.74855,48.513332],[-2.74879,48.513114],[-2.748871,48.513053],[-2.74888,48.512973],[-2.748819,48.512896],[-2.750053,48.512853],[-2.750086,48.513203],[-2.750337,48.5132],[-2.750408,48.513328],[-2.750282,48.51356],[-2.749787,48.513818],[-2.749525,48.513941],[-2.749192,48.514023],[-2.749289,48.514259],[-2.749255,48.514371],[-2.749106,48.51446],[-2.748748,48.514753],[-2.748611,48.514969],[-2.748341,48.514961],[-2.748331,48.514919],[-2.747536,48.514923],[-2.747542,48.515216],[-2.747397,48.515223],[-2.747376,48.515264],[-2.746051,48.515254],[-2.74605,48.515272],[-2.74561,48.515268],[-2.745438,48.515146],[-2.745305,48.515153],[-2.745267,48.514392],[-2.745257,48.514133],[-2.743954,48.514114],[-2.742979,48.514109],[-2.742428,48.514141],[-2.742536,48.514446],[-2.742756,48.514867],[-2.743192,48.515697],[-2.743395,48.516186],[-2.743518,48.516457],[-2.743596,48.516727],[-2.743706,48.517162],[-2.743322,48.517157],[-2.743353,48.517614],[-2.743411,48.517642],[-2.743355,48.517715],[-2.743411,48.518273],[-2.743704,48.518296],[-2.744015,48.518292],[-2.744201,48.518426],[-2.744527,48.51895],[-2.74461,48.51928],[-2.744625,48.519442],[-2.744558,48.519565],[-2.744429,48.519624],[-2.744233,48.519646],[-2.744033,48.519612],[-2.744002,48.519571],[-2.74356,48.519574],[-2.743399,48.519569],[-2.74292,48.519564],[-2.742324,48.51954],[-2.741914,48.519527],[-2.741496,48.519343],[-2.741507,48.519215],[-2.741534,48.519212],[-2.741561,48.518979],[-2.741622,48.518935],[-2.741705,48.518919],[-2.741787,48.518915],[-2.742271,48.518925],[-2.7423,48.518834],[-2.742356,48.518583],[-2.742238,48.518582],[-2.741124,48.518559],[-2.741121,48.518512],[-2.74089,48.518505],[-2.740891,48.51846],[-2.740857,48.518458],[-2.74086,48.518445],[-2.740737,48.518445],[-2.74075,48.518113],[-2.740658,48.517232],[-2.740614,48.517088],[-2.740297,48.51709],[-2.740082,48.51711],[-2.739827,48.517153],[-2.739642,48.517208],[-2.739376,48.517305],[-2.73911,48.517475],[-2.738847,48.517643],[-2.738577,48.517748],[-2.738601,48.517871],[-2.738546,48.518076],[-2.738355,48.518386],[-2.738219,48.518602],[-2.738065,48.518798],[-2.737884,48.518943],[-2.737587,48.519112],[-2.736422,48.519519],[-2.736029,48.519719],[-2.735698,48.520063],[-2.735518,48.520336],[-2.735279,48.521933],[-2.735049,48.523175],[-2.73499,48.523304],[-2.735211,48.523358],[-2.735633,48.523398],[-2.735585,48.523764],[-2.73481,48.524082],[-2.73446,48.524207],[-2.73443,48.52417],[-2.734387,48.52411],[-2.734317,48.524125],[-2.734135,48.523858],[-2.734516,48.523704],[-2.734522,48.523613],[-2.73447,48.522654],[-2.734494,48.522541],[-2.734792,48.522068],[-2.734796,48.522026],[-2.734765,48.521972],[-2.734836,48.521949],[-2.734962,48.521905],[-2.734762,48.521688],[-2.734676,48.521505],[-2.734682,48.521384],[-2.734614,48.521379],[-2.734059,48.521325],[-2.734017,48.521491],[-2.733241,48.520989],[-2.733162,48.520978],[-2.733079,48.520997],[-2.732747,48.521224],[-2.732096,48.520656],[-2.732618,48.520321],[-2.733023,48.520413],[-2.733072,48.520316],[-2.733117,48.520327],[-2.733123,48.520311],[-2.733538,48.520347],[-2.733597,48.519931],[-2.733584,48.519864],[-2.733565,48.519814],[-2.734048,48.519704],[-2.733975,48.519637],[-2.733634,48.519129],[-2.734931,48.518718],[-2.735003,48.518802],[-2.735524,48.518643],[-2.736078,48.518476],[-2.735872,48.518077],[-2.735732,48.517851],[-2.73606,48.517789],[-2.737171,48.51784],[-2.737825,48.517838],[-2.738168,48.517835],[-2.738479,48.517738],[-2.739329,48.517292],[-2.739159,48.517267],[-2.738932,48.517333],[-2.738836,48.517318],[-2.738448,48.516731],[-2.739189,48.516415],[-2.739281,48.516525],[-2.740192,48.516068],[-2.740094,48.515933],[-2.739848,48.51573],[-2.739551,48.515532],[-2.739365,48.515627],[-2.738399,48.516037],[-2.737743,48.516311],[-2.737196,48.516541],[-2.736995,48.516603],[-2.736776,48.516639],[-2.735451,48.516588],[-2.735315,48.516543],[-2.735184,48.51644],[-2.735307,48.516358],[-2.735019,48.516329]]]]}},{"type":"Feature","properties":{"code_qp":"QN02205I","lib_qp":"Waron - Point Du Jour","insee_com":"22278","lib_com":"Saint-Brieuc","insee_dep":"22","siren_epci":"200069409"},"geometry":{"type":"MultiPolygon","coordinates":[[[[-2.787596,48.520829],[-2.787514,48.520907],[-2.787411,48.520919],[-2.787337,48.520885],[-2.787086,48.520848],[-2.786103,48.520929],[-2.785897,48.520934],[-2.785697,48.520914],[-2.785461,48.520869],[-2.785384,48.521076],[-2.785186,48.521295],[-2.784829,48.521675],[-2.784703,48.521838],[-2.7845,48.522052],[-2.783547,48.521626],[-2.782854,48.521279],[-2.782536,48.52113],[-2.782314,48.521006],[-2.782214,48.520948],[-2.782019,48.520785],[-2.781788,48.520518],[-2.78166,48.520286],[-2.781463,48.519547],[-2.781415,48.51949],[-2.781418,48.519407],[-2.781492,48.519335],[-2.781583,48.519319],[-2.781673,48.51932],[-2.782466,48.519364],[-2.78316,48.519378],[-2.783379,48.519424],[-2.783439,48.51951],[-2.783487,48.519856],[-2.783626,48.519895],[-2.784016,48.519409],[-2.784117,48.519175],[-2.784214,48.518971],[-2.784261,48.51887],[-2.784301,48.518721],[-2.784319,48.518643],[-2.784286,48.518636],[-2.783923,48.517317],[-2.784365,48.517133],[-2.78441,48.516986],[-2.784406,48.51682],[-2.785174,48.517125],[-2.785731,48.517008],[-2.785843,48.517392],[-2.785966,48.517996],[-2.785935,48.518014],[-2.785691,48.518498],[-2.785447,48.518965],[-2.785885,48.519051],[-2.787281,48.519293],[-2.78767,48.519363],[-2.788068,48.519417],[-2.78797,48.519847],[-2.787783,48.520361],[-2.787633,48.520777],[-2.787596,48.520829]]]]}},{"type":"Feature","properties":{"code_qp":"QN02206I","lib_qp":"La Fontaine des Eaux","insee_com":"22050","lib_com":"Dinan","insee_dep":"22","siren_epci":"200068989"},"geometry":{"type":"MultiPolygon","coordinates":[[[[-2.046692,48.460682],[-2.044921,48.46216],[-2.044019,48.462184],[-2.043776,48.462509],[-2.043673,48.46266],[-2.043588,48.462761],[-2.043554,48.462937],[-2.043595,48.463015],[-2.043658,48.463071],[-2.043823,48.463128],[-2.042904,48.463821],[-2.042642,48.464053],[-2.04183,48.464707],[-2.041732,48.464766],[-2.041661,48.464817],[-2.041547,48.464836],[-2.041247,48.464834],[-2.040638,48.464863],[-2.040513,48.464862],[-2.040292,48.464789],[-2.040167,48.464705],[-2.039795,48.464349],[-2.039646,48.464258],[-2.039401,48.464212],[-2.03916,48.46421],[-2.038659,48.464237],[-2.038297,48.463859],[-2.038627,48.463753],[-2.03885,48.46361],[-2.039066,48.463424],[-2.039351,48.463379],[-2.040423,48.463338],[-2.040759,48.463323],[-2.040966,48.463324],[-2.041485,48.463334],[-2.041513,48.463518],[-2.041758,48.463441],[-2.041968,48.463397],[-2.042371,48.463335],[-2.043369,48.463198],[-2.043453,48.463192],[-2.043511,48.463092],[-2.043546,48.462998],[-2.043482,48.462744],[-2.04317,48.462197],[-2.042963,48.462242],[-2.042778,48.462254],[-2.042334,48.462304],[-2.041983,48.462346],[-2.041549,48.462439],[-2.041209,48.462491],[-2.04093,48.46238],[-2.040894,48.462337],[-2.040744,48.461896],[-2.040172,48.461905],[-2.040102,48.462128],[-2.040097,48.462192],[-2.040111,48.462342],[-2.040142,48.463112],[-2.038616,48.463134],[-2.038601,48.462955],[-2.03865,48.462905],[-2.038675,48.462825],[-2.038695,48.462803],[-2.03869,48.462659],[-2.038659,48.462615],[-2.038561,48.462572],[-2.038095,48.462505],[-2.038252,48.462124],[-2.038874,48.462172],[-2.039049,48.461655],[-2.038402,48.461601],[-2.038447,48.461477],[-2.038725,48.461021],[-2.039103,48.461081],[-2.039396,48.461101],[-2.039481,48.460852],[-2.039519,48.460809],[-2.039301,48.460605],[-2.039412,48.460567],[-2.039457,48.460556],[-2.03946,48.460606],[-2.039947,48.460593],[-2.039944,48.460559],[-2.039977,48.460558],[-2.040533,48.460765],[-2.040535,48.460367],[-2.04151,48.460173],[-2.041503,48.460166],[-2.041878,48.460131],[-2.041858,48.460164],[-2.041964,48.460638],[-2.042007,48.460632],[-2.042045,48.460746],[-2.042037,48.460748],[-2.04206,48.460834],[-2.04193,48.460854],[-2.042076,48.46132],[-2.042096,48.461394],[-2.042102,48.461391],[-2.042127,48.461463],[-2.042119,48.461468],[-2.042137,48.461592],[-2.042574,48.461543],[-2.042779,48.461515],[-2.042824,48.461506],[-2.042996,48.461885],[-2.043061,48.461882],[-2.043579,48.461863],[-2.043636,48.461817],[-2.043613,48.461807],[-2.043745,48.461689],[-2.04376,48.461693],[-2.043823,48.461666],[-2.04368,48.461545],[-2.043564,48.461362],[-2.043457,48.461068],[-2.043488,48.461057],[-2.04393,48.460509],[-2.044581,48.460585],[-2.044601,48.460629],[-2.044652,48.460669],[-2.044724,48.460675],[-2.044786,48.460666],[-2.045115,48.460998],[-2.045138,48.460956],[-2.045355,48.460658],[-2.046388,48.460634],[-2.046692,48.460682]]]]}},{"type":"Feature","properties":{"code_qp":"QN02207N","lib_qp":"Castel Pic - Roudourou - La Madeleine","insee_com":"22070","lib_com":"Guingamp","insee_dep":"22","siren_epci":"200067981"},"geometry":{"type":"MultiPolygon","coordinates":[[[[-3.161201,48.55885],[-3.161577,48.557651],[-3.161625,48.557491],[-3.162196,48.55755],[-3.164036,48.557255],[-3.164229,48.557374],[-3.164694,48.557238],[-3.165159,48.557937],[-3.164714,48.558646],[-3.164665,48.558662],[-3.164805,48.55927],[-3.164804,48.55955],[-3.164687,48.559867],[-3.164461,48.560212],[-3.164357,48.560352],[-3.163942,48.560314],[-3.163954,48.560184],[-3.16287,48.560088],[-3.162919,48.559902],[-3.162817,48.559885],[-3.162805,48.559826],[-3.161342,48.559824],[-3.161165,48.56031],[-3.16176,48.560366],[-3.161784,48.560398],[-3.161962,48.560426],[-3.162227,48.560426],[-3.162126,48.560999],[-3.162105,48.561006],[-3.162009,48.561523],[-3.161996,48.561555],[-3.162329,48.561646],[-3.164961,48.562714],[-3.165,48.562756],[-3.164979,48.562805],[-3.164967,48.562852],[-3.164941,48.562886],[-3.164818,48.56292],[-3.162528,48.562999],[-3.162611,48.563765],[-3.162097,48.563835],[-3.162183,48.563947],[-3.162277,48.56411],[-3.162347,48.564233],[-3.162373,48.564297],[-3.162515,48.564491],[-3.162939,48.564388],[-3.163169,48.564566],[-3.163241,48.564592],[-3.163771,48.56471],[-3.164097,48.564761],[-3.164391,48.5648],[-3.164862,48.564821],[-3.165234,48.564796],[-3.165552,48.564713],[-3.165827,48.564607],[-3.166007,48.564516],[-3.166192,48.56441],[-3.166366,48.564309],[-3.16662,48.564161],[-3.166819,48.563884],[-3.16692,48.56357],[-3.166944,48.563518],[-3.169398,48.56451],[-3.169051,48.564873],[-3.168884,48.564897],[-3.168599,48.564896],[-3.168215,48.56491],[-3.168217,48.564947],[-3.168237,48.564987],[-3.168254,48.565359],[-3.168274,48.56553],[-3.168054,48.565675],[-3.168057,48.565725],[-3.168136,48.566],[-3.168165,48.566228],[-3.168237,48.566843],[-3.168335,48.566844],[-3.168349,48.566911],[-3.168359,48.567062],[-3.168119,48.567212],[-3.167943,48.567274],[-3.167726,48.567398],[-3.167495,48.567468],[-3.167526,48.567512],[-3.166982,48.567653],[-3.166521,48.567798],[-3.166406,48.567466],[-3.166297,48.566954],[-3.16583,48.566967],[-3.165782,48.567098],[-3.165672,48.567196],[-3.165383,48.567317],[-3.165076,48.567461],[-3.164726,48.567654],[-3.164182,48.568173],[-3.163737,48.568664],[-3.163662,48.568694],[-3.162777,48.569708],[-3.162698,48.569769],[-3.16235,48.570255],[-3.161941,48.570525],[-3.16198,48.570681],[-3.161661,48.570745],[-3.161493,48.570345],[-3.161055,48.570042],[-3.160869,48.569916],[-3.160771,48.569856],[-3.160483,48.569996],[-3.159725,48.570197],[-3.159657,48.570192],[-3.159184,48.570312],[-3.158803,48.570352],[-3.158189,48.570451],[-3.158141,48.57043],[-3.158079,48.5704],[-3.158095,48.570295],[-3.158292,48.569857],[-3.158496,48.569614],[-3.15883,48.569439],[-3.158825,48.569423],[-3.159141,48.56928],[-3.158794,48.568764],[-3.158611,48.568379],[-3.158555,48.568015],[-3.158299,48.56806],[-3.158213,48.568148],[-3.158031,48.568156],[-3.157831,48.568184],[-3.157632,48.568234],[-3.157617,48.568214],[-3.15711,48.568282],[-3.157002,48.568314],[-3.156746,48.568418],[-3.156639,48.568481],[-3.15649,48.568619],[-3.156362,48.568782],[-3.156311,48.568927],[-3.156318,48.569031],[-3.156354,48.569205],[-3.156421,48.569323],[-3.156649,48.56951],[-3.156887,48.569688],[-3.157037,48.569828],[-3.157158,48.569995],[-3.157224,48.570211],[-3.157231,48.570383],[-3.157209,48.57067],[-3.157226,48.570802],[-3.157339,48.570998],[-3.157412,48.571084],[-3.157527,48.571164],[-3.157542,48.571193],[-3.157294,48.571336],[-3.156602,48.571596],[-3.155893,48.571788],[-3.155488,48.57191],[-3.155094,48.571968],[-3.155024,48.571958],[-3.15497,48.571883],[-3.154865,48.571669],[-3.154645,48.571597],[-3.154135,48.571622],[-3.154018,48.571486],[-3.153852,48.570983],[-3.153387,48.570262],[-3.153254,48.569968],[-3.153181,48.56961],[-3.153142,48.569208],[-3.152273,48.569705],[-3.15186,48.56996],[-3.151668,48.570029],[-3.151511,48.570046],[-3.151324,48.57004],[-3.151215,48.570016],[-3.151135,48.569964],[-3.151105,48.569892],[-3.151137,48.569772],[-3.151342,48.5695],[-3.151633,48.569197],[-3.151954,48.568971],[-3.152653,48.568629],[-3.152722,48.568577],[-3.152641,48.568409],[-3.152594,48.568232],[-3.152454,48.567885],[-3.152286,48.567379],[-3.151967,48.567457],[-3.151915,48.567402],[-3.151876,48.567333],[-3.151836,48.567216],[-3.15182,48.567117],[-3.151795,48.567033],[-3.151804,48.566978],[-3.151819,48.566904],[-3.151866,48.566843],[-3.151918,48.566871],[-3.152441,48.566872],[-3.152446,48.566732],[-3.153002,48.566633],[-3.153293,48.566548],[-3.153682,48.566516],[-3.154534,48.566687],[-3.154801,48.566749],[-3.155267,48.566893],[-3.155238,48.566915],[-3.155335,48.56695],[-3.155064,48.567217],[-3.155156,48.567293],[-3.15523,48.567362],[-3.155212,48.567375],[-3.155288,48.567441],[-3.155339,48.567531],[-3.155393,48.567637],[-3.155387,48.567751],[-3.155934,48.567777],[-3.155913,48.567708],[-3.156096,48.567769],[-3.156424,48.567886],[-3.156782,48.567598],[-3.156995,48.567231],[-3.157385,48.56665],[-3.157629,48.566442],[-3.157772,48.566381],[-3.158113,48.566161],[-3.158145,48.566165],[-3.158229,48.566093],[-3.158419,48.565888],[-3.158558,48.565838],[-3.158786,48.565782],[-3.159151,48.565702],[-3.159642,48.565645],[-3.159298,48.565226],[-3.159212,48.565316],[-3.159151,48.565288],[-3.159254,48.56518],[-3.159208,48.56487],[-3.158722,48.564812],[-3.158662,48.564553],[-3.158458,48.564255],[-3.157976,48.564376],[-3.157646,48.564093],[-3.157551,48.564132],[-3.157479,48.56421],[-3.157431,48.56424],[-3.157399,48.564225],[-3.157253,48.564372],[-3.156899,48.564246],[-3.157013,48.564045],[-3.15711,48.563759],[-3.157203,48.563682],[-3.15717,48.563327],[-3.157251,48.562969],[-3.157376,48.562972],[-3.1574,48.562983],[-3.157614,48.562965],[-3.157622,48.563063],[-3.158425,48.562981],[-3.158407,48.56249],[-3.158589,48.56249],[-3.158829,48.562478],[-3.158812,48.562395],[-3.158988,48.562432],[-3.159374,48.56242],[-3.159363,48.56236],[-3.159461,48.562347],[-3.160533,48.562293],[-3.160889,48.561341],[-3.160325,48.561227],[-3.160932,48.559573],[-3.160574,48.559598],[-3.16052,48.559577],[-3.160489,48.559594],[-3.159538,48.559604],[-3.159405,48.559601],[-3.159218,48.559566],[-3.159158,48.559513],[-3.159098,48.55951],[-3.159113,48.559446],[-3.158202,48.559306],[-3.158001,48.559291],[-3.15796,48.559308],[-3.157886,48.559391],[-3.157879,48.559434],[-3.157865,48.559503],[-3.15768,48.559547],[-3.157673,48.559617],[-3.157646,48.559804],[-3.157557,48.559797],[-3.157379,48.560371],[-3.157597,48.560405],[-3.157503,48.560683],[-3.157466,48.560787],[-3.157678,48.561056],[-3.157471,48.561073],[-3.15733,48.561084],[-3.157131,48.561075],[-3.156873,48.561078],[-3.156653,48.561068],[-3.156316,48.561068],[-3.156037,48.561031],[-3.155678,48.560885],[-3.15535,48.560737],[-3.155325,48.560638],[-3.155573,48.560357],[-3.156053,48.560578],[-3.156408,48.560175],[-3.15633,48.560132],[-3.156446,48.560037],[-3.156475,48.55991],[-3.156397,48.55977],[-3.156412,48.559719],[-3.156467,48.55949],[-3.156434,48.55932],[-3.15695,48.559348],[-3.157075,48.558841],[-3.157107,48.558761],[-3.15784,48.558763],[-3.157848,48.558673],[-3.15794,48.558675],[-3.158238,48.558615],[-3.158307,48.558595],[-3.159155,48.558659],[-3.159153,48.558761],[-3.16107,48.558837],[-3.161201,48.55885]]]]}},{"type":"Feature","properties":{"code_qp":"QN02901M","lib_qp":"Kerandon","insee_com":"29039","lib_com":"Concarneau","insee_dep":"29","siren_epci":"242900769"},"geometry":{"type":"MultiPolygon","coordinates":[[[[-3.918595,47.88365],[-3.918343,47.883815],[-3.918131,47.883904],[-3.918227,47.883945],[-3.918589,47.884075],[-3.919295,47.884077],[-3.919296,47.884388],[-3.919359,47.884612],[-3.91954,47.884963],[-3.919474,47.884996],[-3.919439,47.885037],[-3.919447,47.885095],[-3.919281,47.885127],[-3.919096,47.885149],[-3.918209,47.885249],[-3.917995,47.885261],[-3.917987,47.885322],[-3.917921,47.885359],[-3.91783,47.885369],[-3.917772,47.885469],[-3.917799,47.885603],[-3.916912,47.885711],[-3.916782,47.885319],[-3.916189,47.885385],[-3.916183,47.885302],[-3.916156,47.885236],[-3.916096,47.885133],[-3.915988,47.885044],[-3.915884,47.885044],[-3.915591,47.884982],[-3.91533,47.884922],[-3.914776,47.884852],[-3.914633,47.884804],[-3.913857,47.884686],[-3.91331,47.884603],[-3.913265,47.884564],[-3.913291,47.884414],[-3.91338,47.884249],[-3.91348,47.883999],[-3.913505,47.883906],[-3.913523,47.883859],[-3.913597,47.883734],[-3.913792,47.883719],[-3.914007,47.883717],[-3.914674,47.883716],[-3.914656,47.883277],[-3.914659,47.883106],[-3.914663,47.882751],[-3.91464,47.882508],[-3.914639,47.882412],[-3.914649,47.882233],[-3.9147,47.881986],[-3.914685,47.881916],[-3.914704,47.88185],[-3.9147,47.881796],[-3.914747,47.881728],[-3.914685,47.881735],[-3.914649,47.881706],[-3.914629,47.881672],[-3.914621,47.881615],[-3.914558,47.880703],[-3.91448,47.880701],[-3.914329,47.880661],[-3.913874,47.880559],[-3.913893,47.880306],[-3.914023,47.879846],[-3.914101,47.879711],[-3.914166,47.879315],[-3.914623,47.879329],[-3.914724,47.879347],[-3.914778,47.879386],[-3.914836,47.879364],[-3.915012,47.879359],[-3.915169,47.879356],[-3.915187,47.879444],[-3.915206,47.879572],[-3.915251,47.879629],[-3.915387,47.879681],[-3.915674,47.879749],[-3.915848,47.879836],[-3.916215,47.879866],[-3.916732,47.87983],[-3.916844,47.88069],[-3.915953,47.880664],[-3.915934,47.880754],[-3.915836,47.881158],[-3.915734,47.881322],[-3.915691,47.881443],[-3.915692,47.881499],[-3.915727,47.881532],[-3.915773,47.881571],[-3.915837,47.881592],[-3.915943,47.881602],[-3.915926,47.881757],[-3.915926,47.88178],[-3.916454,47.881802],[-3.917211,47.8818],[-3.917472,47.88181],[-3.917884,47.881783],[-3.917913,47.881707],[-3.917926,47.88154],[-3.917987,47.88138],[-3.919488,47.881242],[-3.919469,47.881749],[-3.91876,47.881763],[-3.91876,47.881927],[-3.918714,47.881932],[-3.918683,47.882322],[-3.919043,47.882331],[-3.919123,47.882331],[-3.919123,47.882289],[-3.919248,47.882296],[-3.919318,47.882315],[-3.919408,47.882321],[-3.919401,47.882388],[-3.919367,47.882443],[-3.919321,47.882518],[-3.919346,47.882647],[-3.919395,47.88274],[-3.919399,47.882889],[-3.919369,47.883251],[-3.91907,47.883389],[-3.918617,47.883414],[-3.918595,47.88365]]]]}},{"type":"Feature","properties":{"code_qp":"QN02902M","lib_qp":"Kermoysan","insee_com":"29232","lib_com":"Quimper","insee_dep":"29","siren_epci":"200068120"},"geometry":{"type":"MultiPolygon","coordinates":[[[[-4.129213,47.989265],[-4.127642,47.989338],[-4.127525,47.989321],[-4.12747,47.989305],[-4.127412,47.989276],[-4.127371,47.989233],[-4.127227,47.989269],[-4.127144,47.989145],[-4.126686,47.989278],[-4.126674,47.989346],[-4.126818,47.989354],[-4.126758,47.98954],[-4.126554,47.989504],[-4.126481,47.98972],[-4.126465,47.989957],[-4.126476,47.990111],[-4.126504,47.990229],[-4.126627,47.990548],[-4.126906,47.991102],[-4.126613,47.991142],[-4.126404,47.991203],[-4.126104,47.991201],[-4.125731,47.991232],[-4.125639,47.991377],[-4.125167,47.991539],[-4.124708,47.99164],[-4.124622,47.99168],[-4.124071,47.991789],[-4.123967,47.991513],[-4.123953,47.99114],[-4.123842,47.990754],[-4.1258,47.990426],[-4.125785,47.990254],[-4.125744,47.990087],[-4.125926,47.990026],[-4.125893,47.98956],[-4.125856,47.98928],[-4.125882,47.989087],[-4.125942,47.98909],[-4.126101,47.989084],[-4.126284,47.988362],[-4.126042,47.98833],[-4.126013,47.988278],[-4.125946,47.988172],[-4.125579,47.988274],[-4.125562,47.988247],[-4.125443,47.988276],[-4.125424,47.988211],[-4.125222,47.987875],[-4.125206,47.987812],[-4.124773,47.987904],[-4.124624,47.987701],[-4.124529,47.987601],[-4.124393,47.987415],[-4.124318,47.987292],[-4.124284,47.987237],[-4.124237,47.987187],[-4.124196,47.987142],[-4.124169,47.987101],[-4.124155,47.987096],[-4.124155,47.987074],[-4.124148,47.987042],[-4.124161,47.987035],[-4.123973,47.986773],[-4.123798,47.986573],[-4.12351,47.986435],[-4.12353,47.986345],[-4.123566,47.986275],[-4.123553,47.986208],[-4.123517,47.986157],[-4.123398,47.986048],[-4.123239,47.985861],[-4.123085,47.98561],[-4.123127,47.985555],[-4.123203,47.985472],[-4.12288,47.985301],[-4.122831,47.985359],[-4.122462,47.985326],[-4.122348,47.985319],[-4.122056,47.985258],[-4.122057,47.985296],[-4.121824,47.985288],[-4.121792,47.985288],[-4.121773,47.985442],[-4.121765,47.985585],[-4.121777,47.985672],[-4.121517,47.985706],[-4.121502,47.985802],[-4.121524,47.985809],[-4.12153,47.985902],[-4.121524,47.985994],[-4.12155,47.986288],[-4.121607,47.986313],[-4.121461,47.986469],[-4.121331,47.986633],[-4.121282,47.986624],[-4.121111,47.986591],[-4.12107,47.986547],[-4.121074,47.986486],[-4.120854,47.986466],[-4.121005,47.985754],[-4.120719,47.985709],[-4.120733,47.98564],[-4.120471,47.985615],[-4.12062,47.985219],[-4.121615,47.985315],[-4.121773,47.985325],[-4.121806,47.985142],[-4.122072,47.985158],[-4.12208,47.985116],[-4.122381,47.985198],[-4.122513,47.985206],[-4.122792,47.985257],[-4.122814,47.985116],[-4.122843,47.984832],[-4.122966,47.984799],[-4.122975,47.984866],[-4.122953,47.984876],[-4.123071,47.985069],[-4.123086,47.985056],[-4.123358,47.984964],[-4.123447,47.984938],[-4.123411,47.984729],[-4.123403,47.98453],[-4.124421,47.984238],[-4.124719,47.984724],[-4.124464,47.984789],[-4.124702,47.985165],[-4.124573,47.985209],[-4.124818,47.985584],[-4.124817,47.985601],[-4.124844,47.985644],[-4.124943,47.985613],[-4.124941,47.985607],[-4.125464,47.985458],[-4.125808,47.985362],[-4.125785,47.985309],[-4.126137,47.985205],[-4.126107,47.985153],[-4.126261,47.985111],[-4.12627,47.98512],[-4.126426,47.985079],[-4.126473,47.985143],[-4.126628,47.985096],[-4.126799,47.985043],[-4.126809,47.98505],[-4.127693,47.984763],[-4.127697,47.984773],[-4.128029,47.984665],[-4.128461,47.984506],[-4.12879,47.984406],[-4.129176,47.984111],[-4.12898,47.983944],[-4.128791,47.983775],[-4.128657,47.983638],[-4.128412,47.983421],[-4.127749,47.983021],[-4.12768,47.982989],[-4.127352,47.982664],[-4.127094,47.98243],[-4.126945,47.98232],[-4.127235,47.98205],[-4.127196,47.982016],[-4.127341,47.9819],[-4.127357,47.981939],[-4.127416,47.981964],[-4.127478,47.981962],[-4.127512,47.982034],[-4.127594,47.982128],[-4.127655,47.982168],[-4.127894,47.982272],[-4.128107,47.982382],[-4.128281,47.982491],[-4.128373,47.982548],[-4.128467,47.98263],[-4.128985,47.983086],[-4.129398,47.983455],[-4.12985,47.983339],[-4.129767,47.983258],[-4.129331,47.982898],[-4.129237,47.982752],[-4.129105,47.98264],[-4.128959,47.982482],[-4.12895,47.982322],[-4.128955,47.982127],[-4.128844,47.981681],[-4.128774,47.98134],[-4.128809,47.98117],[-4.12882,47.981098],[-4.128888,47.980939],[-4.128936,47.980942],[-4.129019,47.98093],[-4.129064,47.980887],[-4.129189,47.980937],[-4.129525,47.981153],[-4.129602,47.981202],[-4.129989,47.981468],[-4.130219,47.981661],[-4.1303,47.981774],[-4.130411,47.982033],[-4.130485,47.982339],[-4.130527,47.982614],[-4.130522,47.982709],[-4.13044,47.983348],[-4.130455,47.983473],[-4.130485,47.983553],[-4.130516,47.983619],[-4.130594,47.983732],[-4.130988,47.984325],[-4.131196,47.984569],[-4.13136,47.98453],[-4.131564,47.984689],[-4.131789,47.985223],[-4.132011,47.985601],[-4.132001,47.985639],[-4.131941,47.985633],[-4.131861,47.985646],[-4.131809,47.985683],[-4.131841,47.985784],[-4.131846,47.985814],[-4.13188,47.98581],[-4.131894,47.985828],[-4.13189,47.985835],[-4.131945,47.985835],[-4.131985,47.985862],[-4.132108,47.985835],[-4.132311,47.985889],[-4.132447,47.985935],[-4.132353,47.986268],[-4.132393,47.986498],[-4.132429,47.98661],[-4.132434,47.986835],[-4.132482,47.986977],[-4.132517,47.987039],[-4.132547,47.987093],[-4.132457,47.987351],[-4.132436,47.987451],[-4.132659,47.98824],[-4.130885,47.988363],[-4.130967,47.988723],[-4.130551,47.988764],[-4.130446,47.988787],[-4.130382,47.988743],[-4.130167,47.988872],[-4.130084,47.988947],[-4.130057,47.989019],[-4.130062,47.989072],[-4.130123,47.989151],[-4.130108,47.989333],[-4.13009,47.989374],[-4.130106,47.989535],[-4.129413,47.989562],[-4.1294,47.989271],[-4.129289,47.989249],[-4.129213,47.989265]]]]}},{"type":"Feature","properties":{"code_qp":"QN02903M","lib_qp":"Kerourien","insee_com":"29019","lib_com":"Brest","insee_dep":"29","siren_epci":"242900314"},"geometry":{"type":"MultiPolygon","coordinates":[[[[-4.534486,48.385755],[-4.533982,48.385835],[-4.533977,48.385809],[-4.533261,48.385674],[-4.533056,48.385652],[-4.532975,48.385694],[-4.532891,48.385687],[-4.531537,48.385521],[-4.531226,48.385482],[-4.530667,48.38543],[-4.530074,48.385377],[-4.529273,48.385343],[-4.528828,48.385328],[-4.528406,48.38535],[-4.528175,48.385369],[-4.528184,48.385549],[-4.527995,48.385566],[-4.527885,48.385825],[-4.527835,48.385878],[-4.527629,48.385908],[-4.527411,48.386369],[-4.526279,48.386405],[-4.526388,48.386914],[-4.52314,48.387376],[-4.522722,48.387409],[-4.522239,48.387344],[-4.521593,48.387176],[-4.521617,48.387038],[-4.521533,48.38681],[-4.521546,48.386798],[-4.521497,48.386675],[-4.521474,48.386399],[-4.521633,48.386394],[-4.521709,48.386404],[-4.521732,48.386407],[-4.521942,48.3864],[-4.522017,48.386348],[-4.522016,48.386339],[-4.52229,48.386306],[-4.522478,48.386298],[-4.522576,48.38629],[-4.522623,48.386264],[-4.522596,48.386099],[-4.522695,48.386096],[-4.522584,48.385619],[-4.524621,48.385283],[-4.525332,48.385237],[-4.525981,48.385252],[-4.526926,48.385355],[-4.527568,48.385403],[-4.527951,48.385384],[-4.528174,48.385365],[-4.527938,48.384738],[-4.529212,48.384897],[-4.529244,48.384877],[-4.529178,48.384707],[-4.529233,48.384707],[-4.529304,48.38475],[-4.529592,48.384724],[-4.529594,48.384409],[-4.52961,48.384362],[-4.529805,48.384162],[-4.529988,48.384091],[-4.530333,48.384021],[-4.530204,48.38372],[-4.530565,48.383631],[-4.530939,48.383464],[-4.53105,48.383389],[-4.53121,48.383268],[-4.531392,48.38324],[-4.532326,48.383255],[-4.535231,48.383251],[-4.535345,48.384178],[-4.533546,48.384288],[-4.533563,48.384502],[-4.533748,48.38449],[-4.533752,48.384563],[-4.533567,48.384577],[-4.533593,48.384856],[-4.534611,48.384796],[-4.534637,48.385017],[-4.534848,48.385042],[-4.534767,48.385512],[-4.53484,48.385553],[-4.534486,48.385755]]]]}},{"type":"Feature","properties":{"code_qp":"QN02904M","lib_qp":"Bellevue","insee_com":"29019","lib_com":"Brest","insee_dep":"29","siren_epci":"242900314"},"geometry":{"type":"MultiPolygon","coordinates":[[[[-4.507049,48.402597],[-4.507013,48.40231],[-4.507159,48.402307],[-4.507194,48.402234],[-4.507121,48.401219],[-4.50677,48.401166],[-4.506765,48.400315],[-4.508429,48.400252],[-4.508405,48.399874],[-4.508825,48.39984],[-4.508894,48.399814],[-4.509343,48.399719],[-4.51046,48.399516],[-4.510733,48.399504],[-4.510834,48.399529],[-4.511777,48.399771],[-4.511851,48.399664],[-4.512002,48.399393],[-4.512799,48.399624],[-4.512896,48.399646],[-4.512906,48.399576],[-4.513789,48.399639],[-4.514194,48.399665],[-4.513945,48.401043],[-4.514496,48.400695],[-4.514718,48.400638],[-4.515,48.400594],[-4.515256,48.400659],[-4.515483,48.400745],[-4.515456,48.400785],[-4.515577,48.400823],[-4.515572,48.400857],[-4.515963,48.40114],[-4.516155,48.401338],[-4.516728,48.401384],[-4.517547,48.401823],[-4.517532,48.401847],[-4.517496,48.401893],[-4.517356,48.401911],[-4.51742,48.402001],[-4.517386,48.402435],[-4.517303,48.403175],[-4.517123,48.40425],[-4.515794,48.405054],[-4.515811,48.405186],[-4.515875,48.405247],[-4.515973,48.405961],[-4.517328,48.405893],[-4.517395,48.406089],[-4.517331,48.406132],[-4.517504,48.407351],[-4.515718,48.407431],[-4.515739,48.407711],[-4.515508,48.408155],[-4.515522,48.408282],[-4.515571,48.408341],[-4.515805,48.408484],[-4.515898,48.408562],[-4.515963,48.408682],[-4.516003,48.408771],[-4.516025,48.409001],[-4.515936,48.409092],[-4.515759,48.409219],[-4.51567,48.409252],[-4.515704,48.409731],[-4.515188,48.409759],[-4.514904,48.409789],[-4.514689,48.409829],[-4.514254,48.409589],[-4.513878,48.409404],[-4.513752,48.408523],[-4.513438,48.408403],[-4.513287,48.408369],[-4.513264,48.408312],[-4.513186,48.40779],[-4.513183,48.407242],[-4.512953,48.407012],[-4.512526,48.406678],[-4.511107,48.405589],[-4.511421,48.40544],[-4.512661,48.405392],[-4.512601,48.405286],[-4.512471,48.404293],[-4.511666,48.404327],[-4.510057,48.404412],[-4.510016,48.40405],[-4.508748,48.403071],[-4.508792,48.40295],[-4.509375,48.402937],[-4.511229,48.402829],[-4.511354,48.403883],[-4.511403,48.404272],[-4.511402,48.404323],[-4.511662,48.40432],[-4.512515,48.404275],[-4.513972,48.404209],[-4.514024,48.40419],[-4.514089,48.40415],[-4.514722,48.403274],[-4.515259,48.402493],[-4.515742,48.401769],[-4.515695,48.401656],[-4.515681,48.401629],[-4.515619,48.401564],[-4.515526,48.401494],[-4.515457,48.401454],[-4.515125,48.40112],[-4.514256,48.401683],[-4.51372,48.401215],[-4.513339,48.401472],[-4.512299,48.402075],[-4.509456,48.402224],[-4.508774,48.402862],[-4.50866,48.402918],[-4.508143,48.402943],[-4.507996,48.402971],[-4.507871,48.403024],[-4.507741,48.403041],[-4.50761,48.402991],[-4.507396,48.402992],[-4.506806,48.403016],[-4.505789,48.403059],[-4.505107,48.403089],[-4.504871,48.403149],[-4.504421,48.40317],[-4.504264,48.40327],[-4.503855,48.40298],[-4.503782,48.403017],[-4.503691,48.403034],[-4.503501,48.403028],[-4.503581,48.403338],[-4.503346,48.403353],[-4.503378,48.40366],[-4.503373,48.403732],[-4.503344,48.403761],[-4.503146,48.403768],[-4.50306,48.403797],[-4.50305,48.403837],[-4.5029,48.403841],[-4.502875,48.403883],[-4.502158,48.403922],[-4.50192,48.403884],[-4.501348,48.403905],[-4.500537,48.403666],[-4.500453,48.403653],[-4.500281,48.403876],[-4.500125,48.404228],[-4.499979,48.404388],[-4.497916,48.403682],[-4.498629,48.403015],[-4.498772,48.402845],[-4.499219,48.402143],[-4.500155,48.400751],[-4.500809,48.401086],[-4.501671,48.401501],[-4.502139,48.401715],[-4.502375,48.401812],[-4.502576,48.401951],[-4.503094,48.402359],[-4.503298,48.402508],[-4.50358,48.402502],[-4.503709,48.402528],[-4.503776,48.402572],[-4.504846,48.402462],[-4.504884,48.402445],[-4.504919,48.402446],[-4.505121,48.402468],[-4.505267,48.402447],[-4.50539,48.402374],[-4.50552,48.402314],[-4.505727,48.402302],[-4.505778,48.402306],[-4.505846,48.402357],[-4.505939,48.402374],[-4.505945,48.402431],[-4.506018,48.402482],[-4.506122,48.402522],[-4.50659,48.402519],[-4.506808,48.402687],[-4.506982,48.402607],[-4.507049,48.402597]]]]}},{"type":"Feature","properties":{"code_qp":"QN02905M","lib_qp":"Keredern","insee_com":"29019","lib_com":"Brest","insee_dep":"29","siren_epci":"242900314"},"geometry":{"type":"MultiPolygon","coordinates":[[[[-4.496993,48.408218],[-4.498501,48.407881],[-4.500239,48.407466],[-4.500323,48.407534],[-4.500458,48.407577],[-4.500618,48.407615],[-4.50163,48.407624],[-4.501605,48.411116],[-4.499612,48.411138],[-4.499643,48.411841],[-4.499781,48.412317],[-4.498884,48.412554],[-4.498636,48.412635],[-4.497947,48.412956],[-4.497815,48.413003],[-4.49776,48.413123],[-4.497654,48.413127],[-4.497647,48.413055],[-4.497489,48.412781],[-4.496991,48.412069],[-4.497076,48.412018],[-4.497255,48.411974],[-4.49711,48.411663],[-4.497071,48.41162],[-4.497052,48.411182],[-4.496869,48.411185],[-4.496846,48.410578],[-4.496805,48.409651],[-4.496793,48.409562],[-4.496748,48.408449],[-4.496737,48.408334],[-4.496993,48.408218]]]]}},{"type":"Feature","properties":{"code_qp":"QN02906M","lib_qp":"Lambézellec Bourg","insee_com":"29019","lib_com":"Brest","insee_dep":"29","siren_epci":"242900314"},"geometry":{"type":"MultiPolygon","coordinates":[[[[-4.489383,48.418507],[-4.488292,48.418525],[-4.487809,48.418576],[-4.487598,48.418589],[-4.487497,48.418606],[-4.487415,48.418639],[-4.487356,48.418605],[-4.487277,48.418591],[-4.487189,48.418602],[-4.487154,48.418516],[-4.487127,48.418143],[-4.487051,48.417299],[-4.487706,48.417277],[-4.487671,48.417182],[-4.488207,48.417158],[-4.488245,48.417016],[-4.487727,48.416969],[-4.487047,48.4169],[-4.486827,48.415245],[-4.487,48.415308],[-4.487456,48.415503],[-4.487707,48.415572],[-4.488008,48.415608],[-4.489381,48.415605],[-4.489635,48.415591],[-4.489553,48.414627],[-4.489866,48.414425],[-4.490388,48.414269],[-4.490511,48.414441],[-4.490811,48.414364],[-4.490886,48.41446],[-4.491074,48.414546],[-4.491059,48.414566],[-4.491605,48.414535],[-4.491642,48.414572],[-4.491919,48.414485],[-4.49198,48.414456],[-4.492128,48.414583],[-4.492149,48.414651],[-4.492172,48.414753],[-4.49208,48.415377],[-4.492119,48.415511],[-4.49197,48.415552],[-4.491914,48.415587],[-4.491622,48.415697],[-4.491752,48.415917],[-4.491732,48.41592],[-4.491753,48.415965],[-4.491686,48.415972],[-4.491669,48.416173],[-4.491588,48.416172],[-4.491599,48.416297],[-4.491625,48.416435],[-4.491656,48.416437],[-4.491738,48.416563],[-4.491715,48.416573],[-4.491724,48.416586],[-4.491459,48.416653],[-4.491607,48.416961],[-4.491619,48.416958],[-4.491637,48.417048],[-4.491221,48.417037],[-4.490897,48.417016],[-4.490666,48.417026],[-4.490351,48.417063],[-4.490148,48.417086],[-4.48991,48.417121],[-4.489845,48.417147],[-4.489843,48.417203],[-4.489657,48.417179],[-4.488807,48.417073],[-4.489196,48.417742],[-4.489251,48.417734],[-4.4893,48.417895],[-4.48983,48.417778],[-4.489978,48.418397],[-4.489383,48.418507]]]]}},{"type":"Feature","properties":{"code_qp":"QN02907M","lib_qp":"Pontanézen","insee_com":"29019","lib_com":"Brest","insee_dep":"29","siren_epci":"242900314"},"geometry":{"type":"MultiPolygon","coordinates":[[[[-4.468409,48.412723],[-4.468531,48.412499],[-4.468545,48.412427],[-4.468551,48.412313],[-4.468546,48.412186],[-4.468533,48.412074],[-4.469954,48.411717],[-4.46991,48.411362],[-4.469994,48.41136],[-4.469998,48.411337],[-4.46956,48.410973],[-4.469485,48.411011],[-4.469392,48.410842],[-4.469789,48.410684],[-4.470082,48.410531],[-4.470214,48.410448],[-4.470258,48.410406],[-4.470175,48.410299],[-4.470292,48.410267],[-4.470592,48.410153],[-4.470743,48.4101],[-4.470923,48.410374],[-4.470934,48.410433],[-4.470998,48.410508],[-4.471356,48.410746],[-4.4718,48.411003],[-4.471953,48.411036],[-4.47208,48.411118],[-4.472932,48.411504],[-4.473135,48.411481],[-4.473177,48.411374],[-4.473102,48.410905],[-4.473907,48.410784],[-4.474046,48.410759],[-4.47447,48.410646],[-4.474715,48.41097],[-4.475258,48.410917],[-4.475268,48.411441],[-4.47524,48.411746],[-4.475169,48.411945],[-4.475792,48.41209],[-4.475924,48.412118],[-4.475803,48.412512],[-4.475756,48.412624],[-4.47556,48.413119],[-4.47514,48.413996],[-4.475105,48.414161],[-4.475096,48.414363],[-4.475085,48.414528],[-4.475098,48.414679],[-4.474191,48.414752],[-4.473859,48.414791],[-4.473797,48.41458],[-4.473629,48.414255],[-4.473603,48.414121],[-4.47312,48.414167],[-4.472403,48.414205],[-4.472484,48.414762],[-4.47261,48.4156],[-4.472574,48.41563],[-4.47252,48.415648],[-4.472121,48.415667],[-4.471892,48.415646],[-4.471618,48.415696],[-4.470402,48.41579],[-4.47024,48.41477],[-4.469896,48.414776],[-4.469574,48.414781],[-4.468472,48.414793],[-4.46832,48.414791],[-4.468471,48.413558],[-4.468459,48.413425],[-4.469994,48.413331],[-4.469923,48.412896],[-4.469593,48.412961],[-4.469522,48.412978],[-4.469465,48.412846],[-4.469416,48.412798],[-4.469339,48.412759],[-4.469336,48.41274],[-4.46913,48.412714],[-4.468515,48.412818],[-4.468395,48.412838],[-4.468409,48.412723]]]]}},{"type":"Feature","properties":{"code_qp":"QN02908M","lib_qp":"Queliverzan Pontaniou","insee_com":"29019","lib_com":"Brest","insee_dep":"29","siren_epci":"242900314"},"geometry":{"type":"MultiPolygon","coordinates":[[[[-4.504122,48.392473],[-4.503976,48.392189],[-4.503877,48.392065],[-4.503825,48.391775],[-4.503711,48.391524],[-4.50365,48.391236],[-4.503638,48.391106],[-4.503571,48.390194],[-4.503616,48.389999],[-4.503609,48.389993],[-4.503654,48.389799],[-4.503678,48.389497],[-4.503425,48.389407],[-4.503262,48.389486],[-4.502681,48.389606],[-4.502532,48.389588],[-4.501785,48.389432],[-4.501322,48.389299],[-4.501148,48.389178],[-4.50105,48.389134],[-4.501138,48.388902],[-4.500939,48.388652],[-4.500964,48.388608],[-4.501017,48.388633],[-4.501523,48.388772],[-4.501665,48.388783],[-4.502549,48.388786],[-4.503422,48.388802],[-4.503536,48.388792],[-4.503473,48.388675],[-4.503436,48.38852],[-4.503388,48.387876],[-4.502395,48.387988],[-4.502318,48.387729],[-4.502257,48.387458],[-4.502059,48.387447],[-4.502075,48.387263],[-4.503203,48.386983],[-4.50316,48.386815],[-4.502897,48.386844],[-4.50192,48.387086],[-4.501838,48.386721],[-4.501431,48.386758],[-4.501263,48.386051],[-4.500859,48.386044],[-4.49923,48.385751],[-4.49921,48.385521],[-4.499182,48.385255],[-4.501009,48.384873],[-4.501834,48.384701],[-4.502653,48.384669],[-4.503648,48.384586],[-4.503957,48.384566],[-4.504261,48.386157],[-4.504351,48.386663],[-4.50456,48.387758],[-4.504682,48.388502],[-4.504712,48.388644],[-4.504821,48.389228],[-4.504935,48.389879],[-4.504972,48.390024],[-4.504986,48.390146],[-4.505112,48.390184],[-4.505674,48.390541],[-4.506123,48.390865],[-4.506239,48.390949],[-4.506066,48.391097],[-4.505968,48.391188],[-4.50621,48.391359],[-4.506368,48.391553],[-4.506462,48.391686],[-4.506562,48.391791],[-4.50674,48.391903],[-4.506862,48.391976],[-4.507296,48.392132],[-4.507932,48.39213],[-4.508122,48.392253],[-4.508837,48.392149],[-4.508917,48.392354],[-4.50885,48.392433],[-4.508856,48.392496],[-4.508938,48.392544],[-4.509038,48.392863],[-4.508699,48.392932],[-4.50868,48.392899],[-4.507583,48.393119],[-4.507594,48.393143],[-4.507431,48.393181],[-4.506765,48.392834],[-4.505379,48.392583],[-4.505355,48.392396],[-4.50509,48.392509],[-4.504817,48.392582],[-4.504324,48.392677],[-4.504122,48.392473]]]]}},{"type":"Feature","properties":{"code_qp":"QN02909M","lib_qp":"Kerangoff Loti","insee_com":"29019","lib_com":"Brest","insee_dep":"29","siren_epci":"242900314"},"geometry":{"type":"MultiPolygon","coordinates":[[[[-4.509426,48.383101],[-4.509221,48.383148],[-4.509112,48.383056],[-4.508724,48.382941],[-4.50854,48.382906],[-4.507845,48.38285],[-4.506754,48.382762],[-4.506835,48.382356],[-4.506981,48.382363],[-4.507024,48.382116],[-4.507036,48.382107],[-4.507199,48.38177],[-4.507001,48.381674],[-4.506937,48.381733],[-4.50688,48.381663],[-4.506855,48.381592],[-4.507136,48.381302],[-4.507248,48.381248],[-4.507814,48.381113],[-4.508,48.380825],[-4.508143,48.380637],[-4.508403,48.380331],[-4.508457,48.38028],[-4.509279,48.380091],[-4.509987,48.379725],[-4.51028,48.379994],[-4.510477,48.379999],[-4.511118,48.379832],[-4.511141,48.379895],[-4.511165,48.379994],[-4.511208,48.380092],[-4.511258,48.380298],[-4.51126,48.380445],[-4.510822,48.381304],[-4.510477,48.381252],[-4.510046,48.38123],[-4.509763,48.381243],[-4.509582,48.381275],[-4.509424,48.381324],[-4.509243,48.38142],[-4.509096,48.381543],[-4.508774,48.382055],[-4.509524,48.382048],[-4.509532,48.382363],[-4.509331,48.382371],[-4.509332,48.382442],[-4.509363,48.382437],[-4.509405,48.382475],[-4.509426,48.383101]]]]}},{"type":"Feature","properties":{"code_qp":"QN03501I","lib_qp":"La Découverte","insee_com":"35288","lib_com":"Saint-Malo","insee_dep":"35","siren_epci":"243500782"},"geometry":{"type":"MultiPolygon","coordinates":[[[[-1.989903,48.637351],[-1.990524,48.637113],[-1.990689,48.637288],[-1.990768,48.637259],[-1.991128,48.637686],[-1.991229,48.637634],[-1.991519,48.637507],[-1.991658,48.637473],[-1.991984,48.637344],[-1.992118,48.637292],[-1.992877,48.637003],[-1.992113,48.636143],[-1.991847,48.635656],[-1.99132,48.635085],[-1.99105,48.635172],[-1.990469,48.635383],[-1.990227,48.635459],[-1.990104,48.635488],[-1.989924,48.635514],[-1.989826,48.635431],[-1.989707,48.635334],[-1.989671,48.635239],[-1.989644,48.635056],[-1.991364,48.634458],[-1.991443,48.634559],[-1.991433,48.634981],[-1.99147,48.635036],[-1.99211,48.634827],[-1.992277,48.634792],[-1.992634,48.634819],[-1.992756,48.634941],[-1.99297,48.63507],[-1.993334,48.635357],[-1.993746,48.63565],[-1.993899,48.635762],[-1.994331,48.635914],[-1.994703,48.636017],[-1.996254,48.636452],[-1.996726,48.636594],[-1.99693,48.636721],[-1.997609,48.637359],[-1.998291,48.637054],[-1.998558,48.636927],[-1.998878,48.636727],[-1.999421,48.636324],[-1.999485,48.636296],[-1.999736,48.636247],[-1.999793,48.636592],[-1.999799,48.636737],[-1.999785,48.636823],[-1.999758,48.636888],[-1.999682,48.636934],[-1.999784,48.637121],[-1.999873,48.637321],[-1.999916,48.637487],[-1.999922,48.637581],[-1.999928,48.637639],[-1.999895,48.637706],[-1.999816,48.637749],[-1.999629,48.637762],[-1.999558,48.637787],[-1.999831,48.638249],[-1.999581,48.638324],[-1.999684,48.638486],[-1.999394,48.638567],[-1.999469,48.638764],[-1.999536,48.638983],[-1.999585,48.639128],[-1.999638,48.639196],[-1.999963,48.63906],[-2.000129,48.638962],[-2.000224,48.638875],[-2.000326,48.638845],[-2.000285,48.638789],[-2.000748,48.638658],[-2.000675,48.638537],[-2.000876,48.638482],[-2.000898,48.638478],[-2.00107,48.638392],[-2.001157,48.638425],[-2.001269,48.638481],[-2.001436,48.638649],[-2.001406,48.638675],[-2.001485,48.638726],[-2.001595,48.638742],[-2.001603,48.638751],[-2.001731,48.638751],[-2.001809,48.638792],[-2.002033,48.638719],[-2.002135,48.638719],[-2.002391,48.638683],[-2.002447,48.638695],[-2.002694,48.638675],[-2.002882,48.638892],[-2.002941,48.638956],[-2.003024,48.639003],[-2.00326,48.639127],[-2.003522,48.639247],[-2.003756,48.639334],[-2.003878,48.639402],[-2.003643,48.639607],[-2.003898,48.639733],[-2.003902,48.639929],[-2.004052,48.640077],[-2.004067,48.640198],[-2.002923,48.640238],[-2.003023,48.640995],[-2.003031,48.641028],[-2.003089,48.641027],[-2.003393,48.641662],[-2.003981,48.642408],[-2.004001,48.642403],[-2.004291,48.642774],[-2.004572,48.643049],[-2.004858,48.643321],[-2.005664,48.644068],[-2.005275,48.644258],[-2.005153,48.644317],[-2.005773,48.6449],[-2.006443,48.645506],[-2.006548,48.645612],[-2.006483,48.645672],[-2.006247,48.645646],[-2.006187,48.645636],[-2.006182,48.645687],[-2.00607,48.645937],[-2.006032,48.646022],[-2.005777,48.646111],[-2.005134,48.646292],[-2.004888,48.64633],[-2.003545,48.646133],[-2.003572,48.646077],[-2.000895,48.645706],[-2.000707,48.645641],[-2.000254,48.645592],[-2.000104,48.645612],[-1.999552,48.64554],[-1.99947,48.645483],[-1.999442,48.645424],[-1.99946,48.645329],[-1.999574,48.645042],[-1.999634,48.645014],[-1.999816,48.644947],[-1.999928,48.64492],[-2.000192,48.644956],[-2.00043,48.644989],[-2.000917,48.645061],[-2.00106,48.64471],[-2.00143,48.644778],[-2.001748,48.64483],[-2.001856,48.644849],[-2.002132,48.644908],[-2.002448,48.644949],[-2.002745,48.645007],[-2.002853,48.644726],[-2.001365,48.644457],[-2.00151,48.6441],[-2.003079,48.644134],[-2.003096,48.644056],[-2.003227,48.643792],[-2.003294,48.643714],[-2.003389,48.643636],[-2.00349,48.643603],[-2.003456,48.643553],[-2.002956,48.642821],[-2.002956,48.642621],[-2.002939,48.642455],[-2.002889,48.642373],[-2.003186,48.642275],[-2.003048,48.642111],[-2.002711,48.641667],[-2.002522,48.64142],[-2.002054,48.640713],[-2.001991,48.640594],[-2.001943,48.640399],[-2.001923,48.640328],[-2.001693,48.640354],[-2.000827,48.640461],[-2.00031,48.640524],[-1.999595,48.640142],[-1.999461,48.640015],[-1.998993,48.639329],[-1.9987,48.638898],[-1.998111,48.637997],[-1.997778,48.637556],[-1.997305,48.637731],[-1.997269,48.637754],[-1.996756,48.637176],[-1.99635,48.637322],[-1.996255,48.637357],[-1.995943,48.637497],[-1.99563,48.637139],[-1.995469,48.637015],[-1.995346,48.636935],[-1.995107,48.63681],[-1.994674,48.636678],[-1.994137,48.636532],[-1.993973,48.636487],[-1.993881,48.636571],[-1.993811,48.636613],[-1.993053,48.636914],[-1.992891,48.637013],[-1.992172,48.637283],[-1.99256,48.637743],[-1.993098,48.638323],[-1.993228,48.638466],[-1.993973,48.639336],[-1.994925,48.640402],[-1.99424,48.641549],[-1.993662,48.640898],[-1.992824,48.641221],[-1.992527,48.641337],[-1.992424,48.641474],[-1.99209,48.6416],[-1.992157,48.642313],[-1.991679,48.642334],[-1.991642,48.642463],[-1.991663,48.642691],[-1.991687,48.642727],[-1.991614,48.642823],[-1.991154,48.642931],[-1.990886,48.643028],[-1.990678,48.643162],[-1.990833,48.643859],[-1.990969,48.643895],[-1.991117,48.643998],[-1.991215,48.644021],[-1.991488,48.644155],[-1.992872,48.644516],[-1.99288,48.644788],[-1.992828,48.644867],[-1.99276,48.64515],[-1.992442,48.645108],[-1.991758,48.645048],[-1.991092,48.64497],[-1.990946,48.644957],[-1.990656,48.644944],[-1.990746,48.645505],[-1.990847,48.645954],[-1.99106,48.647031],[-1.991321,48.648148],[-1.991422,48.648581],[-1.991438,48.648675],[-1.991424,48.648673],[-1.991358,48.648578],[-1.991211,48.648446],[-1.991076,48.648293],[-1.990877,48.648114],[-1.990676,48.647933],[-1.990498,48.647808],[-1.989765,48.647121],[-1.989329,48.646745],[-1.989052,48.646538],[-1.98897,48.646408],[-1.988957,48.646349],[-1.98896,48.646214],[-1.989237,48.646],[-1.989372,48.645876],[-1.98974,48.645492],[-1.989924,48.645271],[-1.990183,48.644852],[-1.990366,48.644357],[-1.990428,48.64411],[-1.990471,48.643762],[-1.990499,48.643173],[-1.990463,48.642817],[-1.990352,48.641617],[-1.990273,48.640918],[-1.990254,48.6407],[-1.990072,48.639145],[-1.989979,48.638259],[-1.989969,48.63804],[-1.989903,48.637351]]]]}},{"type":"Feature","properties":{"code_qp":"QN03502M","lib_qp":"Villejean","insee_com":"35238","lib_com":"Rennes","insee_dep":"35","siren_epci":"243500139"},"geometry":{"type":"MultiPolygon","coordinates":[[[[-1.718415,48.119983],[-1.718418,48.120089],[-1.718392,48.120123],[-1.718318,48.120143],[-1.717694,48.12014],[-1.717691,48.120461],[-1.717312,48.120451],[-1.716934,48.120448],[-1.716907,48.121149],[-1.717539,48.121155],[-1.717537,48.121362],[-1.717575,48.121426],[-1.717563,48.122491],[-1.717564,48.122506],[-1.717514,48.122513],[-1.715374,48.12248],[-1.715346,48.123432],[-1.714872,48.123423],[-1.714849,48.12345],[-1.713595,48.123439],[-1.713592,48.123757],[-1.712963,48.123754],[-1.712067,48.123743],[-1.71207,48.123571],[-1.711505,48.123564],[-1.711343,48.123597],[-1.710957,48.123595],[-1.710956,48.123447],[-1.71053,48.123446],[-1.710327,48.123317],[-1.70965,48.123308],[-1.709628,48.12336],[-1.709625,48.123688],[-1.709098,48.123682],[-1.709241,48.124416],[-1.707831,48.124545],[-1.706862,48.124576],[-1.705932,48.124554],[-1.705965,48.123009],[-1.706007,48.122015],[-1.706021,48.121608],[-1.70645,48.121621],[-1.706485,48.121651],[-1.707377,48.121669],[-1.708698,48.121662],[-1.70866,48.121459],[-1.70853,48.120878],[-1.707617,48.120883],[-1.707611,48.120721],[-1.707052,48.120714],[-1.706826,48.120707],[-1.706306,48.120695],[-1.706241,48.120584],[-1.704539,48.120518],[-1.704568,48.120334],[-1.704582,48.119988],[-1.704881,48.120003],[-1.705022,48.120005],[-1.705063,48.119978],[-1.706062,48.120007],[-1.706034,48.120314],[-1.706314,48.120323],[-1.706378,48.120342],[-1.706708,48.120346],[-1.706716,48.120085],[-1.70755,48.120111],[-1.707546,48.120356],[-1.708449,48.120371],[-1.70817,48.119119],[-1.708011,48.118336],[-1.707099,48.118326],[-1.707115,48.117629],[-1.706934,48.117573],[-1.706799,48.117579],[-1.705526,48.117558],[-1.705412,48.117567],[-1.705421,48.117226],[-1.70538,48.117178],[-1.705331,48.117119],[-1.705328,48.117034],[-1.704886,48.117047],[-1.704706,48.117054],[-1.704755,48.116311],[-1.705056,48.115977],[-1.705094,48.115994],[-1.705229,48.116001],[-1.705596,48.116033],[-1.706061,48.116114],[-1.706394,48.116169],[-1.707238,48.116316],[-1.70735,48.116348],[-1.707565,48.116432],[-1.707751,48.116538],[-1.707848,48.116626],[-1.707897,48.116709],[-1.707986,48.116873],[-1.707932,48.11783],[-1.707997,48.118104],[-1.708769,48.118119],[-1.708738,48.119023],[-1.708834,48.11903],[-1.710368,48.119044],[-1.710862,48.119056],[-1.711427,48.119064],[-1.71148,48.11917],[-1.711603,48.119266],[-1.711741,48.119318],[-1.712308,48.119316],[-1.712352,48.119292],[-1.71244,48.119227],[-1.712453,48.118817],[-1.712488,48.118753],[-1.712567,48.118701],[-1.71272,48.118667],[-1.71351,48.118677],[-1.713627,48.118696],[-1.713642,48.118658],[-1.713861,48.118687],[-1.714023,48.118686],[-1.714062,48.118754],[-1.714535,48.118764],[-1.714691,48.118909],[-1.714672,48.118927],[-1.714658,48.119058],[-1.715114,48.119062],[-1.715743,48.119089],[-1.715735,48.119368],[-1.715732,48.119445],[-1.716178,48.119438],[-1.716229,48.119459],[-1.71625,48.119487],[-1.716249,48.11963],[-1.71709,48.119639],[-1.717193,48.119638],[-1.717191,48.119897],[-1.717396,48.11989],[-1.717516,48.119946],[-1.717776,48.11992],[-1.718061,48.119925],[-1.718212,48.119984],[-1.718415,48.119983]]]]}},{"type":"Feature","properties":{"code_qp":"QN03503I","lib_qp":"Bréquigny - Champs-Manceaux - Les Clôteaux","insee_com":"35238","lib_com":"Rennes","insee_dep":"35","siren_epci":"243500139"},"geometry":{"type":"MultiPolygon","coordinates":[[[[-1.681824,48.094261],[-1.680888,48.094201],[-1.680029,48.094149],[-1.680065,48.093805],[-1.680331,48.091753],[-1.680342,48.091423],[-1.680556,48.09143],[-1.680623,48.090928],[-1.680814,48.090921],[-1.680851,48.090838],[-1.682144,48.090925],[-1.68222,48.090371],[-1.68223,48.090015],[-1.682106,48.090013],[-1.682009,48.089994],[-1.681895,48.089949],[-1.681826,48.089866],[-1.681753,48.089735],[-1.681757,48.0896],[-1.68182,48.089508],[-1.681488,48.089377],[-1.681427,48.088749],[-1.681431,48.088122],[-1.680533,48.087928],[-1.679926,48.087557],[-1.679461,48.08771],[-1.678835,48.087721],[-1.67863,48.087665],[-1.678221,48.087505],[-1.677794,48.08748],[-1.677358,48.087501],[-1.677192,48.087529],[-1.677135,48.087598],[-1.676894,48.087614],[-1.676772,48.087718],[-1.676595,48.087746],[-1.676439,48.087707],[-1.676338,48.087517],[-1.676081,48.087527],[-1.675922,48.087348],[-1.675935,48.086697],[-1.675682,48.086693],[-1.675019,48.086682],[-1.675053,48.085503],[-1.67635,48.085517],[-1.676817,48.085501],[-1.676855,48.085636],[-1.679298,48.085673],[-1.6793,48.085004],[-1.68043,48.085015],[-1.680449,48.084793],[-1.681858,48.084802],[-1.681879,48.084803],[-1.681969,48.084872],[-1.682123,48.084897],[-1.682397,48.084877],[-1.683373,48.084919],[-1.683411,48.084593],[-1.683375,48.084589],[-1.683392,48.084289],[-1.684062,48.083974],[-1.68489,48.083989],[-1.685476,48.084198],[-1.687745,48.084256],[-1.689948,48.083433],[-1.690974,48.083348],[-1.692048,48.082971],[-1.692201,48.083163],[-1.692289,48.083237],[-1.692384,48.083235],[-1.693616,48.083321],[-1.696039,48.083495],[-1.69586,48.084515],[-1.695865,48.084571],[-1.69592,48.084589],[-1.69598,48.084606],[-1.695979,48.084649],[-1.696006,48.084684],[-1.696041,48.084705],[-1.695985,48.084824],[-1.695721,48.085269],[-1.695083,48.085231],[-1.695082,48.085199],[-1.693836,48.085116],[-1.693311,48.085098],[-1.693369,48.084835],[-1.693386,48.0847],[-1.692558,48.084635],[-1.692311,48.084616],[-1.692026,48.084595],[-1.69186,48.085609],[-1.691667,48.086848],[-1.690831,48.086709],[-1.689612,48.08669],[-1.688087,48.086636],[-1.686498,48.086566],[-1.686047,48.086635],[-1.685757,48.086722],[-1.685512,48.086846],[-1.68478,48.08682],[-1.684764,48.086284],[-1.684927,48.085806],[-1.685046,48.08553],[-1.685225,48.085311],[-1.685306,48.085044],[-1.682533,48.084918],[-1.682491,48.084967],[-1.682426,48.084987],[-1.682333,48.084979],[-1.682348,48.085033],[-1.682326,48.085072],[-1.682317,48.086547],[-1.682274,48.086655],[-1.682117,48.086732],[-1.682102,48.086838],[-1.682165,48.086923],[-1.682298,48.086971],[-1.682276,48.087791],[-1.682203,48.089409],[-1.682315,48.089401],[-1.682451,48.089416],[-1.682612,48.089527],[-1.682706,48.089648],[-1.682715,48.089776],[-1.682666,48.089859],[-1.682602,48.089917],[-1.682663,48.089932],[-1.68295,48.089972],[-1.682737,48.091395],[-1.682077,48.091345],[-1.682012,48.091893],[-1.681969,48.092175],[-1.683451,48.092285],[-1.683499,48.092298],[-1.683364,48.09339],[-1.68188,48.093304],[-1.681898,48.093389],[-1.681824,48.094261]]]]}},{"type":"Feature","properties":{"code_qp":"QN03504M","lib_qp":"Maurepas","insee_com":"35238","lib_com":"Rennes","insee_dep":"35","siren_epci":"243500139"},"geometry":{"type":"MultiPolygon","coordinates":[[[[-1.661584,48.123113],[-1.661697,48.123186],[-1.661683,48.123198],[-1.661914,48.123348],[-1.662548,48.123343],[-1.662803,48.123251],[-1.663001,48.123468],[-1.663037,48.123603],[-1.663036,48.123672],[-1.663018,48.123729],[-1.663342,48.123731],[-1.66333,48.123695],[-1.663561,48.123546],[-1.66372,48.123468],[-1.664058,48.123293],[-1.664178,48.123383],[-1.664167,48.123401],[-1.664487,48.12363],[-1.664311,48.123751],[-1.664285,48.123737],[-1.66392,48.123974],[-1.663976,48.124095],[-1.663957,48.124197],[-1.664233,48.124414],[-1.664949,48.123975],[-1.665272,48.124194],[-1.665287,48.124303],[-1.666713,48.125111],[-1.666111,48.12558],[-1.665829,48.125857],[-1.664954,48.127204],[-1.664427,48.128177],[-1.664214,48.128504],[-1.662956,48.128233],[-1.661283,48.12811],[-1.661278,48.12825],[-1.661322,48.128284],[-1.661386,48.128299],[-1.661423,48.128321],[-1.661427,48.128413],[-1.661397,48.128491],[-1.661348,48.128822],[-1.661209,48.128808],[-1.661157,48.129143],[-1.661254,48.129294],[-1.661218,48.129376],[-1.660396,48.129383],[-1.660383,48.129266],[-1.65894,48.129284],[-1.658994,48.130435],[-1.659575,48.130418],[-1.659622,48.130465],[-1.659623,48.130821],[-1.661907,48.130777],[-1.662441,48.130906],[-1.661791,48.132053],[-1.661704,48.132044],[-1.661234,48.132213],[-1.659883,48.132244],[-1.659868,48.132051],[-1.658643,48.132082],[-1.658615,48.131257],[-1.658571,48.13096],[-1.65844,48.130957],[-1.658492,48.130756],[-1.658472,48.130347],[-1.657277,48.130379],[-1.65652,48.130404],[-1.656558,48.131625],[-1.655884,48.131627],[-1.655835,48.131588],[-1.655691,48.131371],[-1.655616,48.131299],[-1.655602,48.131245],[-1.653196,48.131304],[-1.652893,48.131384],[-1.652565,48.131379],[-1.652577,48.131931],[-1.652605,48.132354],[-1.652044,48.132347],[-1.652031,48.132059],[-1.65199,48.131448],[-1.652068,48.127883],[-1.652053,48.127762],[-1.652205,48.127727],[-1.652371,48.127649],[-1.652453,48.127547],[-1.652476,48.127468],[-1.652861,48.127485],[-1.654912,48.127641],[-1.654931,48.127518],[-1.655767,48.126884],[-1.655874,48.126942],[-1.655947,48.126967],[-1.655996,48.126973],[-1.657478,48.126003],[-1.657539,48.125997],[-1.657526,48.125575],[-1.657576,48.125577],[-1.657917,48.125767],[-1.657907,48.125505],[-1.658951,48.125497],[-1.658623,48.125323],[-1.659136,48.124878],[-1.659152,48.124838],[-1.660012,48.124289],[-1.659955,48.124229],[-1.660265,48.12405],[-1.660282,48.123987],[-1.660679,48.123734],[-1.660807,48.123665],[-1.661584,48.123113]]]]}},{"type":"Feature","properties":{"code_qp":"QN03505M","lib_qp":"Le Blosne","insee_com":"35238","lib_com":"Rennes","insee_dep":"35","siren_epci":"243500139"},"geometry":{"type":"MultiPolygon","coordinates":[[[[-1.650893,48.087601],[-1.650973,48.084545],[-1.661091,48.08469],[-1.661078,48.0849],[-1.661086,48.0854],[-1.661544,48.085392],[-1.661965,48.085428],[-1.663612,48.085419],[-1.664361,48.085259],[-1.66496,48.08538],[-1.665711,48.085461],[-1.666129,48.085561],[-1.666299,48.085459],[-1.666566,48.085516],[-1.666734,48.085497],[-1.666728,48.085449],[-1.667901,48.085445],[-1.667927,48.085016],[-1.668343,48.08457],[-1.668678,48.084566],[-1.668943,48.084576],[-1.66909,48.084585],[-1.66911,48.084626],[-1.669179,48.084654],[-1.669308,48.08466],[-1.669472,48.084687],[-1.669649,48.084725],[-1.669594,48.085662],[-1.669516,48.085662],[-1.669405,48.08651],[-1.669245,48.086593],[-1.669179,48.088399],[-1.664622,48.088311],[-1.664528,48.088238],[-1.662992,48.08822],[-1.66298,48.088839],[-1.662581,48.088831],[-1.662446,48.089324],[-1.661961,48.089317],[-1.661953,48.089588],[-1.661815,48.089584],[-1.661814,48.089658],[-1.661384,48.089649],[-1.660956,48.089584],[-1.660936,48.089542],[-1.660879,48.089472],[-1.660723,48.089367],[-1.660641,48.089275],[-1.660808,48.089136],[-1.660902,48.089003],[-1.66093,48.088177],[-1.660293,48.08819],[-1.657434,48.088121],[-1.657436,48.088278],[-1.657379,48.089917],[-1.65736,48.090641],[-1.657325,48.09137],[-1.655018,48.091356],[-1.655036,48.092265],[-1.654446,48.092261],[-1.654453,48.092438],[-1.654471,48.092437],[-1.654469,48.09246],[-1.654619,48.09246],[-1.654628,48.093267],[-1.654643,48.09412],[-1.654253,48.094126],[-1.654026,48.093818],[-1.654017,48.093586],[-1.654136,48.093347],[-1.654144,48.09321],[-1.654129,48.092726],[-1.653438,48.092749],[-1.653412,48.092015],[-1.653376,48.091947],[-1.653215,48.092018],[-1.653135,48.092056],[-1.652838,48.091859],[-1.652679,48.091825],[-1.652621,48.091826],[-1.651768,48.091813],[-1.651634,48.091777],[-1.651563,48.091703],[-1.651432,48.091645],[-1.650283,48.091618],[-1.650155,48.091671],[-1.650109,48.091754],[-1.649973,48.09175],[-1.648869,48.091754],[-1.648877,48.091406],[-1.648927,48.091195],[-1.648238,48.091148],[-1.646861,48.091093],[-1.645935,48.091087],[-1.645357,48.091083],[-1.645174,48.090823],[-1.645015,48.090583],[-1.64487,48.09029],[-1.64479,48.089958],[-1.64472,48.089576],[-1.644697,48.08903],[-1.647045,48.08892],[-1.647062,48.088569],[-1.647525,48.088577],[-1.647703,48.088375],[-1.647812,48.088099],[-1.648112,48.088096],[-1.648114,48.087545],[-1.650893,48.087601]]]]}},{"type":"Feature","properties":{"code_qp":"QN03506I","lib_qp":"Cleunay","insee_com":"35238","lib_com":"Rennes","insee_dep":"35","siren_epci":"243500139"},"geometry":{"type":"MultiPolygon","coordinates":[[[[-1.708565,48.099598],[-1.70866,48.099982],[-1.70894,48.10092],[-1.709117,48.101405],[-1.709133,48.101528],[-1.706364,48.101891],[-1.704587,48.10239],[-1.703483,48.10269],[-1.703476,48.102239],[-1.704594,48.102021],[-1.704654,48.101957],[-1.704834,48.101919],[-1.705053,48.101819],[-1.705375,48.101764],[-1.705346,48.101598],[-1.705349,48.101282],[-1.705618,48.10125],[-1.705751,48.101226],[-1.705709,48.101109],[-1.705586,48.100866],[-1.705595,48.100639],[-1.705606,48.10046],[-1.705919,48.100471],[-1.705783,48.100096],[-1.7057,48.099815],[-1.705534,48.099812],[-1.705284,48.099598],[-1.705157,48.09935],[-1.705115,48.099185],[-1.704977,48.09887],[-1.705578,48.099006],[-1.706246,48.099111],[-1.706386,48.099166],[-1.70645,48.099229],[-1.706505,48.099307],[-1.706657,48.099795],[-1.706856,48.100448],[-1.707466,48.100347],[-1.707869,48.100248],[-1.707571,48.099771],[-1.707468,48.09965],[-1.707415,48.099623],[-1.707363,48.099319],[-1.707732,48.099293],[-1.708511,48.099236],[-1.708565,48.099598]]]]}},{"type":"Feature","properties":{"code_qp":"QN05601M","lib_qp":"Gumenen Goaner-Parco Pointer","insee_com":"56007","lib_com":"Auray","insee_dep":"56","siren_epci":"200043123"},"geometry":{"type":"MultiPolygon","coordinates":[[[[-2.997249,47.673957],[-2.996794,47.674068],[-2.996451,47.674112],[-2.995964,47.674219],[-2.994954,47.674397],[-2.99495,47.674388],[-2.994401,47.674437],[-2.994364,47.674295],[-2.993695,47.67447],[-2.993368,47.673997],[-2.992734,47.673143],[-2.992417,47.67271],[-2.993168,47.672465],[-2.993375,47.672382],[-2.993475,47.672319],[-2.993503,47.672272],[-2.993652,47.672356],[-2.99371,47.672947],[-2.993894,47.67292],[-2.994388,47.67289],[-2.99458,47.672895],[-2.994708,47.672892],[-2.994842,47.672871],[-2.995245,47.672805],[-2.995342,47.673054],[-2.995347,47.673183],[-2.995338,47.67331],[-2.995355,47.673386],[-2.995458,47.673378],[-2.995527,47.673355],[-2.996352,47.673323],[-2.996391,47.67338],[-2.996532,47.673344],[-2.996751,47.67332],[-2.997159,47.67332],[-2.997268,47.673326],[-2.997274,47.673341],[-2.997325,47.673344],[-2.997317,47.673306],[-2.997385,47.673303],[-2.997329,47.672751],[-2.99736,47.67258],[-2.99744,47.672409],[-2.997443,47.672337],[-2.997333,47.672106],[-2.997345,47.671947],[-2.99686,47.671777],[-2.996966,47.671529],[-2.997059,47.671338],[-2.996609,47.671175],[-2.996708,47.670688],[-2.996763,47.670425],[-2.996786,47.670298],[-2.996654,47.670306],[-2.996577,47.670332],[-2.996625,47.669619],[-2.996315,47.669607],[-2.996311,47.669628],[-2.995777,47.669527],[-2.995516,47.669496],[-2.995496,47.669311],[-2.995499,47.669145],[-2.995524,47.668767],[-2.995556,47.668606],[-2.995569,47.668405],[-2.99652,47.668526],[-2.997009,47.668585],[-2.997264,47.668635],[-2.997417,47.668675],[-2.997475,47.668668],[-2.997515,47.668649],[-2.997599,47.668648],[-2.997631,47.668593],[-2.997637,47.668572],[-2.997983,47.668669],[-2.998222,47.66874],[-2.998367,47.668794],[-2.998418,47.668858],[-2.998997,47.669067],[-2.999036,47.669104],[-2.999103,47.669071],[-2.999195,47.669104],[-2.999377,47.669195],[-2.999605,47.66935],[-2.999825,47.66954],[-2.999837,47.669567],[-2.99987,47.669562],[-3.000256,47.669847],[-3.000625,47.670176],[-3.000724,47.670294],[-3.0009,47.670274],[-3.001041,47.670259],[-3.001298,47.67028],[-3.001218,47.670468],[-3.001195,47.670623],[-3.001162,47.670872],[-3.001176,47.670998],[-3.001177,47.671081],[-3.001162,47.671116],[-3.001071,47.671184],[-2.999399,47.671227],[-2.999552,47.673073],[-2.99997,47.673111],[-3.000022,47.673109],[-3.000063,47.672827],[-3.000214,47.672669],[-3.000508,47.672388],[-3.000634,47.672439],[-3.000811,47.672513],[-3.000841,47.672444],[-3.001045,47.672206],[-3.001054,47.671871],[-3.000982,47.671793],[-3.000991,47.671519],[-3.00107,47.671389],[-3.001466,47.671276],[-3.002109,47.671529],[-3.002186,47.671791],[-3.001809,47.671834],[-3.001783,47.672361],[-3.001718,47.672526],[-3.001708,47.672807],[-3.001698,47.673185],[-3.001748,47.673226],[-3.00145,47.673213],[-3.001347,47.673319],[-3.001019,47.673265],[-3.000956,47.673049],[-3.000807,47.672528],[-3.000625,47.672447],[-3.000506,47.672399],[-3.000227,47.672672],[-3.000077,47.672828],[-3.000034,47.673128],[-2.999553,47.673092],[-2.999553,47.673156],[-2.999535,47.673197],[-2.999399,47.673331],[-2.998829,47.673105],[-2.997819,47.672727],[-2.997503,47.672591],[-2.997469,47.672619],[-2.997418,47.672635],[-2.997376,47.672612],[-2.997348,47.672746],[-2.997405,47.673299],[-2.997406,47.673459],[-2.997446,47.673894],[-2.997249,47.673957]]]]}},{"type":"Feature","properties":{"code_qp":"QN05602M","lib_qp":"Keriou Ker","insee_com":"56083","lib_com":"Hennebont","insee_dep":"56","siren_epci":"200042174"},"geometry":{"type":"MultiPolygon","coordinates":[[[[-3.267988,47.803815],[-3.268202,47.803657],[-3.268481,47.803726],[-3.268452,47.803752],[-3.268412,47.803783],[-3.268605,47.80388],[-3.268685,47.803882],[-3.268725,47.803913],[-3.268798,47.803951],[-3.268846,47.803955],[-3.268917,47.803927],[-3.268971,47.803898],[-3.269081,47.80387],[-3.269171,47.80385],[-3.269173,47.803857],[-3.269633,47.803773],[-3.269606,47.803574],[-3.269554,47.803191],[-3.269602,47.802955],[-3.269581,47.802699],[-3.270309,47.802512],[-3.270497,47.801706],[-3.271025,47.801787],[-3.271094,47.801527],[-3.271545,47.801598],[-3.271559,47.801592],[-3.271631,47.80157],[-3.271612,47.801539],[-3.271462,47.801252],[-3.271376,47.801043],[-3.27126,47.800778],[-3.271225,47.800643],[-3.271166,47.800513],[-3.271138,47.800401],[-3.271134,47.800249],[-3.271037,47.79993],[-3.271673,47.799856],[-3.271771,47.799957],[-3.272558,47.799812],[-3.273259,47.799734],[-3.273488,47.799694],[-3.273411,47.799563],[-3.274146,47.799416],[-3.274382,47.79938],[-3.274499,47.799568],[-3.274766,47.800023],[-3.274805,47.800021],[-3.275252,47.800683],[-3.275082,47.800666],[-3.274929,47.800678],[-3.274709,47.800738],[-3.274664,47.800818],[-3.274331,47.800946],[-3.274461,47.801163],[-3.2741,47.801196],[-3.273693,47.801223],[-3.273501,47.801263],[-3.273247,47.801301],[-3.273053,47.801375],[-3.272931,47.801445],[-3.273084,47.801621],[-3.273829,47.801981],[-3.273933,47.802031],[-3.274109,47.802301],[-3.274349,47.802699],[-3.274347,47.802798],[-3.274018,47.802855],[-3.273664,47.802691],[-3.27326,47.802533],[-3.273242,47.802633],[-3.273241,47.803305],[-3.273392,47.803899],[-3.273269,47.804174],[-3.273034,47.804274],[-3.272775,47.80431],[-3.272568,47.804313],[-3.271236,47.804339],[-3.27058,47.804352],[-3.269318,47.804299],[-3.269131,47.804272],[-3.268823,47.804183],[-3.268641,47.804101],[-3.268689,47.804636],[-3.268663,47.804977],[-3.268697,47.804981],[-3.268655,47.805185],[-3.268629,47.805575],[-3.270202,47.80566],[-3.270228,47.805805],[-3.270204,47.805909],[-3.270013,47.806486],[-3.269988,47.806485],[-3.269893,47.806682],[-3.269777,47.806942],[-3.269533,47.806887],[-3.26954,47.806868],[-3.26911,47.806781],[-3.269262,47.807265],[-3.269329,47.807671],[-3.269337,47.807878],[-3.269342,47.807957],[-3.269319,47.808036],[-3.269271,47.808106],[-3.269214,47.808139],[-3.269473,47.808364],[-3.269366,47.808454],[-3.269026,47.80867],[-3.268192,47.809221],[-3.269692,47.810596],[-3.269766,47.810681],[-3.269923,47.810821],[-3.268652,47.811457],[-3.26853,47.811305],[-3.268504,47.811229],[-3.268238,47.811102],[-3.268046,47.81096],[-3.267436,47.811073],[-3.267042,47.810472],[-3.268318,47.809903],[-3.268088,47.809626],[-3.268038,47.809611],[-3.268024,47.809535],[-3.267883,47.809418],[-3.268168,47.809206],[-3.268625,47.808901],[-3.268858,47.808751],[-3.269204,47.808522],[-3.26943,47.808365],[-3.269202,47.808154],[-3.26898,47.808042],[-3.268739,47.807955],[-3.267897,47.807655],[-3.267746,47.807618],[-3.267524,47.80759],[-3.267312,47.807574],[-3.266801,47.807576],[-3.266563,47.807602],[-3.266445,47.807748],[-3.266223,47.808071],[-3.266026,47.807973],[-3.265087,47.807575],[-3.264819,47.807467],[-3.264571,47.807278],[-3.264147,47.806907],[-3.263896,47.80661],[-3.264119,47.806431],[-3.265065,47.805603],[-3.265157,47.805626],[-3.265203,47.805603],[-3.265366,47.805557],[-3.265368,47.805615],[-3.265533,47.805609],[-3.265679,47.805604],[-3.265678,47.805546],[-3.266261,47.805523],[-3.267105,47.805465],[-3.267178,47.805001],[-3.267276,47.804403],[-3.267333,47.804069],[-3.267412,47.803887],[-3.26745,47.803862],[-3.267526,47.803856],[-3.267631,47.803884],[-3.267742,47.8039],[-3.267789,47.803883],[-3.267819,47.803865],[-3.267852,47.803836],[-3.267988,47.803815]]]]}},{"type":"Feature","properties":{"code_qp":"QN05603M","lib_qp":"Enezeg","insee_com":"56098","lib_com":"Lanester","insee_dep":"56","siren_epci":"200042174"},"geometry":{"type":"MultiPolygon","coordinates":[[[[-3.346621,47.764426],[-3.346823,47.765116],[-3.346872,47.765315],[-3.346936,47.765326],[-3.346958,47.765353],[-3.346958,47.765374],[-3.347104,47.765383],[-3.347779,47.7653],[-3.347966,47.765504],[-3.347137,47.765599],[-3.346716,47.765643],[-3.346708,47.765625],[-3.346319,47.765668],[-3.346331,47.765781],[-3.34587,47.765849],[-3.345231,47.765899],[-3.345196,47.766224],[-3.344542,47.766173],[-3.344288,47.766167],[-3.344179,47.766151],[-3.344062,47.766177],[-3.343908,47.766214],[-3.343431,47.767117],[-3.343266,47.767402],[-3.342968,47.767828],[-3.342779,47.768039],[-3.339705,47.767199],[-3.339442,47.767127],[-3.339108,47.767043],[-3.338707,47.766952],[-3.337866,47.766826],[-3.337552,47.766797],[-3.337629,47.766584],[-3.337682,47.76644],[-3.337718,47.766411],[-3.337831,47.766359],[-3.33787,47.766328],[-3.33797,47.76629],[-3.338083,47.76627],[-3.338363,47.766224],[-3.338547,47.766129],[-3.338895,47.765364],[-3.339079,47.764773],[-3.339279,47.764131],[-3.339317,47.763086],[-3.339387,47.76248],[-3.338294,47.76258],[-3.338285,47.762536],[-3.337673,47.762587],[-3.337383,47.762553],[-3.337149,47.762572],[-3.336997,47.76252],[-3.336735,47.762548],[-3.33654,47.762631],[-3.334629,47.762776],[-3.33455,47.762793],[-3.33488,47.763274],[-3.334981,47.763506],[-3.33498,47.763533],[-3.333973,47.763872],[-3.333604,47.763776],[-3.333343,47.763716],[-3.333207,47.763679],[-3.332999,47.763934],[-3.332934,47.764022],[-3.33293,47.764072],[-3.332555,47.764028],[-3.332385,47.763995],[-3.33216,47.76393],[-3.332106,47.764001],[-3.331855,47.764088],[-3.331591,47.76404],[-3.331595,47.764087],[-3.33158,47.764131],[-3.331492,47.764191],[-3.331199,47.764236],[-3.330989,47.764336],[-3.330266,47.764378],[-3.32924,47.764455],[-3.329206,47.764273],[-3.329008,47.763776],[-3.32862,47.763081],[-3.328685,47.763063],[-3.328731,47.763031],[-3.328755,47.762982],[-3.328733,47.762939],[-3.329162,47.762837],[-3.331454,47.762658],[-3.331756,47.762615],[-3.334229,47.762443],[-3.336973,47.762198],[-3.339419,47.762008],[-3.339454,47.761987],[-3.339619,47.761976],[-3.339602,47.761655],[-3.339412,47.761114],[-3.339548,47.761094],[-3.339491,47.760866],[-3.340388,47.760704],[-3.340834,47.760591],[-3.340821,47.760569],[-3.340924,47.760536],[-3.341068,47.760466],[-3.341145,47.760409],[-3.341182,47.760359],[-3.341281,47.760324],[-3.341448,47.760265],[-3.341757,47.760253],[-3.342011,47.760247],[-3.342107,47.760239],[-3.342299,47.760211],[-3.342333,47.760183],[-3.342479,47.760159],[-3.342748,47.760116],[-3.342917,47.760083],[-3.343014,47.760044],[-3.342849,47.759658],[-3.342613,47.759104],[-3.343121,47.75917],[-3.344075,47.759136],[-3.344278,47.759143],[-3.344739,47.760016],[-3.344051,47.760062],[-3.343743,47.760088],[-3.343642,47.760093],[-3.343557,47.76012],[-3.343514,47.760106],[-3.343113,47.760115],[-3.342105,47.760253],[-3.342008,47.76028],[-3.341757,47.760289],[-3.341774,47.760495],[-3.341403,47.760573],[-3.341463,47.760723],[-3.341575,47.760687],[-3.341619,47.76071],[-3.341723,47.760704],[-3.341736,47.760893],[-3.341652,47.760895],[-3.341705,47.761613],[-3.341169,47.761622],[-3.341188,47.761938],[-3.339806,47.761976],[-3.339527,47.761999],[-3.339452,47.762009],[-3.339452,47.762029],[-3.339402,47.762284],[-3.339713,47.762309],[-3.339815,47.762311],[-3.33996,47.7623],[-3.341315,47.76227],[-3.343121,47.762218],[-3.343118,47.762263],[-3.343129,47.762402],[-3.342658,47.762909],[-3.342198,47.763379],[-3.341989,47.763583],[-3.341982,47.763625],[-3.341918,47.763636],[-3.341407,47.764166],[-3.33955,47.766065],[-3.339773,47.766194],[-3.339847,47.766238],[-3.339961,47.766278],[-3.340026,47.766283],[-3.340114,47.766247],[-3.340331,47.766032],[-3.340516,47.765934],[-3.340748,47.766128],[-3.340885,47.766028],[-3.341029,47.76585],[-3.341059,47.765831],[-3.341129,47.765782],[-3.341152,47.765799],[-3.341368,47.765675],[-3.341578,47.765587],[-3.341736,47.765737],[-3.341969,47.765626],[-3.342018,47.765717],[-3.342285,47.765601],[-3.342036,47.765381],[-3.342374,47.765233],[-3.342119,47.764996],[-3.342438,47.764684],[-3.342619,47.764664],[-3.343197,47.764358],[-3.343475,47.764588],[-3.343511,47.764563],[-3.343671,47.764674],[-3.343924,47.764871],[-3.344016,47.764872],[-3.34401,47.764953],[-3.344107,47.765038],[-3.344187,47.764991],[-3.344231,47.7649],[-3.344299,47.764819],[-3.344547,47.764875],[-3.345379,47.764963],[-3.345489,47.764356],[-3.346621,47.764426]]]]}},{"type":"Feature","properties":{"code_qp":"QN05604M","lib_qp":"Kervenanec Nord","insee_com":"56121","lib_com":"Lorient","insee_dep":"56","siren_epci":"200042174"},"geometry":{"type":"MultiPolygon","coordinates":[[[[-3.393583,47.744378],[-3.393147,47.744389],[-3.393036,47.74438],[-3.393092,47.744157],[-3.393119,47.744109],[-3.392852,47.744041],[-3.392352,47.743889],[-3.392338,47.743829],[-3.392199,47.743791],[-3.392079,47.743331],[-3.392241,47.743312],[-3.392011,47.742931],[-3.392074,47.742912],[-3.391995,47.742781],[-3.392284,47.742687],[-3.39246,47.74262],[-3.39225,47.742299],[-3.392363,47.742244],[-3.392351,47.74217],[-3.392699,47.742152],[-3.392447,47.741015],[-3.392485,47.740701],[-3.393474,47.740638],[-3.393422,47.740352],[-3.393365,47.739842],[-3.394738,47.739755],[-3.394879,47.739814],[-3.394745,47.739962],[-3.394863,47.740831],[-3.394681,47.740837],[-3.394739,47.741226],[-3.395363,47.74118],[-3.395225,47.743157],[-3.395262,47.74343],[-3.395334,47.743501],[-3.395341,47.743649],[-3.39541,47.744062],[-3.395452,47.744354],[-3.395063,47.744357],[-3.394368,47.744352],[-3.393583,47.744378]]]]}},{"type":"Feature","properties":{"code_qp":"QN05605M","lib_qp":"Polygone Frebault","insee_com":"56121","lib_com":"Lorient","insee_dep":"56","siren_epci":"200042174"},"geometry":{"type":"MultiPolygon","coordinates":[[[[-3.37281,47.740936],[-3.373973,47.74055],[-3.375073,47.740186],[-3.375261,47.740136],[-3.376637,47.739681],[-3.376447,47.739367],[-3.376305,47.739403],[-3.375516,47.739442],[-3.375434,47.739372],[-3.37591,47.739101],[-3.377371,47.73864],[-3.376865,47.737926],[-3.376698,47.737704],[-3.377427,47.73747],[-3.377594,47.737696],[-3.378024,47.73755],[-3.378119,47.737538],[-3.378238,47.73757],[-3.378528,47.737709],[-3.378776,47.737886],[-3.379155,47.738179],[-3.37945,47.738409],[-3.379652,47.738619],[-3.379749,47.738711],[-3.379796,47.73881],[-3.379831,47.738925],[-3.379776,47.739146],[-3.379774,47.739167],[-3.379702,47.7392],[-3.379641,47.739263],[-3.379611,47.739358],[-3.37913,47.739432],[-3.378587,47.739546],[-3.378271,47.73964],[-3.375782,47.740438],[-3.376234,47.741097],[-3.375036,47.741474],[-3.374084,47.741779],[-3.373558,47.741966],[-3.373323,47.74164],[-3.373093,47.741317],[-3.371777,47.741736],[-3.371874,47.741857],[-3.372208,47.742321],[-3.372241,47.742386],[-3.370826,47.742843],[-3.370453,47.742167],[-3.370361,47.742186],[-3.368345,47.742762],[-3.368402,47.742158],[-3.368856,47.742117],[-3.368845,47.74205],[-3.368902,47.742055],[-3.369095,47.74203],[-3.369103,47.742097],[-3.369612,47.742052],[-3.369618,47.742039],[-3.369618,47.741833],[-3.370213,47.741695],[-3.370958,47.741516],[-3.37281,47.740936]]]]}},{"type":"Feature","properties":{"code_qp":"QN05606M","lib_qp":"Bois du Château","insee_com":"56121","lib_com":"Lorient","insee_dep":"56","siren_epci":"200042174"},"geometry":{"type":"MultiPolygon","coordinates":[[[[-3.37744,47.766647],[-3.377394,47.766728],[-3.377055,47.76775],[-3.376988,47.767908],[-3.376917,47.768022],[-3.376797,47.768005],[-3.37672,47.76802],[-3.375523,47.768718],[-3.373199,47.767603],[-3.372705,47.767601],[-3.372742,47.767226],[-3.373574,47.766768],[-3.373525,47.766729],[-3.372966,47.766741],[-3.372913,47.766717],[-3.372873,47.7663],[-3.372385,47.766303],[-3.372395,47.766382],[-3.372231,47.766392],[-3.372161,47.766352],[-3.372023,47.766324],[-3.371974,47.76576],[-3.371967,47.765698],[-3.371861,47.765699],[-3.371689,47.76567],[-3.371585,47.765633],[-3.371426,47.765513],[-3.371395,47.765382],[-3.37133,47.76489],[-3.37132,47.764792],[-3.37129,47.764465],[-3.371633,47.764498],[-3.371764,47.764465],[-3.371852,47.7644],[-3.372382,47.764268],[-3.372823,47.764158],[-3.372932,47.764325],[-3.373366,47.76419],[-3.373993,47.763999],[-3.373829,47.76383],[-3.373638,47.763624],[-3.373606,47.763584],[-3.373954,47.763434],[-3.373368,47.762835],[-3.373093,47.76255],[-3.374794,47.761809],[-3.375132,47.761678],[-3.375384,47.761644],[-3.375672,47.761642],[-3.375849,47.761677],[-3.375895,47.76176],[-3.375967,47.76178],[-3.376002,47.762302],[-3.376025,47.762418],[-3.376042,47.762515],[-3.376134,47.76259],[-3.377425,47.763022],[-3.37765,47.762707],[-3.377381,47.762616],[-3.377482,47.762463],[-3.378297,47.762744],[-3.378366,47.762806],[-3.378564,47.76303],[-3.378603,47.763025],[-3.378632,47.762985],[-3.378899,47.763076],[-3.378955,47.762991],[-3.379103,47.763034],[-3.379546,47.762434],[-3.379327,47.762359],[-3.379467,47.762169],[-3.37966,47.76222],[-3.380002,47.762312],[-3.38025,47.76239],[-3.380464,47.762546],[-3.380329,47.762638],[-3.380177,47.762805],[-3.37968,47.763448],[-3.379561,47.763615],[-3.379248,47.764017],[-3.37744,47.766647]]]]}},{"type":"Feature","properties":{"code_qp":"QN05607M","lib_qp":"Kerguillette - Petit Paradis - St Armel","insee_com":"56121","lib_com":"Lorient","insee_dep":"56","siren_epci":"200042174"},"geometry":{"type":"MultiPolygon","coordinates":[[[[-3.393294,47.764227],[-3.39214,47.764618],[-3.39146,47.764966],[-3.391293,47.765021],[-3.390638,47.765151],[-3.390614,47.764916],[-3.39037,47.764932],[-3.390253,47.764563],[-3.389824,47.764586],[-3.38969,47.764604],[-3.389603,47.764219],[-3.382848,47.764632],[-3.382864,47.764863],[-3.382869,47.764968],[-3.382316,47.764978],[-3.382432,47.766318],[-3.382768,47.767043],[-3.382218,47.7672],[-3.382726,47.767962],[-3.383531,47.76767],[-3.383702,47.767855],[-3.383126,47.768057],[-3.382312,47.768697],[-3.382277,47.7687],[-3.382277,47.768723],[-3.381749,47.768747],[-3.381732,47.768682],[-3.380976,47.768733],[-3.380963,47.768646],[-3.380902,47.768654],[-3.380849,47.768535],[-3.380717,47.768386],[-3.380602,47.768221],[-3.380507,47.768041],[-3.380499,47.768015],[-3.380347,47.767323],[-3.380528,47.767196],[-3.380608,47.767156],[-3.381184,47.767212],[-3.381217,47.767227],[-3.381828,47.767277],[-3.381806,47.76724],[-3.381961,47.767244],[-3.381968,47.767259],[-3.382083,47.767252],[-3.38208,47.767241],[-3.382133,47.767236],[-3.382088,47.767173],[-3.381824,47.767168],[-3.38179,47.766784],[-3.381749,47.766788],[-3.381711,47.766746],[-3.381751,47.766692],[-3.381648,47.76647],[-3.381689,47.766335],[-3.381635,47.766284],[-3.381521,47.766021],[-3.38097,47.766128],[-3.380798,47.766153],[-3.380811,47.766246],[-3.380823,47.766358],[-3.380802,47.766526],[-3.380659,47.766704],[-3.380627,47.7668],[-3.380542,47.766788],[-3.380098,47.76679],[-3.380184,47.766158],[-3.380047,47.765825],[-3.379949,47.765734],[-3.379656,47.765714],[-3.379779,47.765181],[-3.379657,47.765174],[-3.379711,47.765019],[-3.380052,47.765005],[-3.380072,47.764745],[-3.380098,47.764602],[-3.380256,47.764347],[-3.380361,47.764228],[-3.380491,47.764073],[-3.380864,47.764202],[-3.380973,47.76405],[-3.381109,47.763909],[-3.381818,47.763292],[-3.381945,47.763297],[-3.382384,47.763315],[-3.382325,47.763458],[-3.382249,47.763694],[-3.382512,47.763717],[-3.382106,47.764238],[-3.382913,47.764255],[-3.382943,47.764492],[-3.38299,47.764587],[-3.38484,47.764473],[-3.384833,47.764421],[-3.384799,47.764088],[-3.386189,47.764004],[-3.386214,47.763101],[-3.386192,47.763024],[-3.386124,47.76302],[-3.385812,47.762997],[-3.385561,47.763024],[-3.385578,47.762526],[-3.385973,47.76247],[-3.386374,47.762475],[-3.386254,47.762874],[-3.386256,47.76293],[-3.386398,47.762945],[-3.388361,47.762565],[-3.388456,47.76278],[-3.388066,47.762956],[-3.388527,47.763451],[-3.388596,47.763421],[-3.388963,47.763971],[-3.389006,47.764231],[-3.389668,47.764199],[-3.389706,47.764409],[-3.390316,47.764374],[-3.390285,47.764012],[-3.390217,47.763912],[-3.391786,47.763288],[-3.391819,47.7627],[-3.39185,47.762648],[-3.391714,47.762604],[-3.390717,47.762333],[-3.389935,47.762108],[-3.389888,47.76203],[-3.389919,47.76191],[-3.389924,47.761799],[-3.389923,47.761638],[-3.389686,47.760553],[-3.390346,47.760488],[-3.39031,47.760324],[-3.39047,47.76039],[-3.390871,47.760585],[-3.391033,47.760626],[-3.391202,47.76064],[-3.392102,47.760525],[-3.392274,47.761084],[-3.392409,47.761489],[-3.391753,47.761631],[-3.391749,47.761645],[-3.391208,47.761748],[-3.391524,47.762438],[-3.39149,47.762521],[-3.391997,47.762677],[-3.392612,47.762847],[-3.39434,47.76331],[-3.394876,47.763452],[-3.395053,47.763486],[-3.39502,47.76355],[-3.394998,47.763616],[-3.395059,47.763736],[-3.394861,47.763822],[-3.39472,47.763866],[-3.393806,47.764049],[-3.393294,47.764227]]]]}},{"type":"Feature","properties":{"code_qp":"QN05608M","lib_qp":"Kercado","insee_com":"56260","lib_com":"Vannes","insee_dep":"56","siren_epci":"200067932"},"geometry":{"type":"MultiPolygon","coordinates":[[[[-2.770561,47.64994],[-2.769714,47.65034],[-2.76881,47.650916],[-2.768149,47.65075],[-2.767729,47.650621],[-2.767466,47.650526],[-2.767295,47.650477],[-2.767062,47.650475],[-2.766539,47.650426],[-2.76653,47.65049],[-2.766496,47.650503],[-2.766156,47.650454],[-2.766231,47.649987],[-2.766273,47.649861],[-2.76635,47.649872],[-2.766492,47.649595],[-2.766295,47.649557],[-2.766272,47.648969],[-2.766989,47.649053],[-2.767001,47.648948],[-2.767022,47.648416],[-2.767012,47.648303],[-2.767806,47.648344],[-2.768097,47.648397],[-2.768237,47.648388],[-2.768254,47.648317],[-2.768368,47.648316],[-2.768534,47.647799],[-2.769548,47.647943],[-2.770166,47.647995],[-2.770287,47.647982],[-2.770319,47.64824],[-2.770439,47.64824],[-2.771661,47.648245],[-2.772303,47.648265],[-2.772428,47.648538],[-2.772737,47.648441],[-2.772795,47.648496],[-2.773134,47.648376],[-2.774226,47.648385],[-2.77423,47.648282],[-2.775753,47.648288],[-2.775783,47.646616],[-2.776816,47.646621],[-2.776284,47.646138],[-2.775961,47.646293],[-2.775723,47.646079],[-2.775752,47.64565],[-2.774878,47.644867],[-2.773332,47.643465],[-2.773395,47.643175],[-2.774364,47.642767],[-2.774605,47.64294],[-2.776402,47.644573],[-2.776395,47.644568],[-2.776752,47.644894],[-2.777064,47.645174],[-2.777131,47.645148],[-2.778408,47.644489],[-2.780236,47.646174],[-2.779562,47.646526],[-2.77891,47.646843],[-2.778237,47.647195],[-2.778178,47.647259],[-2.778141,47.647311],[-2.778122,47.647386],[-2.778097,47.648043],[-2.778188,47.648047],[-2.778728,47.648059],[-2.779131,47.648306],[-2.778845,47.648529],[-2.778786,47.648572],[-2.778585,47.648711],[-2.77813,47.648435],[-2.778027,47.648395],[-2.77706,47.649115],[-2.777015,47.649146],[-2.776904,47.649184],[-2.776725,47.649301],[-2.77668,47.649347],[-2.776621,47.64946],[-2.776597,47.649587],[-2.776596,47.650611],[-2.776419,47.650668],[-2.776021,47.650739],[-2.776025,47.650364],[-2.773297,47.650651],[-2.773261,47.650268],[-2.773263,47.649801],[-2.772649,47.649721],[-2.772593,47.64968],[-2.772525,47.649721],[-2.772416,47.649717],[-2.772401,47.649796],[-2.772298,47.649948],[-2.77214,47.650136],[-2.771947,47.650341],[-2.771955,47.650369],[-2.772174,47.650618],[-2.772233,47.650719],[-2.772046,47.650816],[-2.770537,47.65086],[-2.77061,47.650494],[-2.770592,47.650245],[-2.770561,47.64994]]]]}},{"type":"Feature","properties":{"code_qp":"QN05609M","lib_qp":"Ménimur","insee_com":"56260","lib_com":"Vannes","insee_dep":"56","siren_epci":"200067932"},"geometry":{"type":"MultiPolygon","coordinates":[[[[-2.758301,47.673321],[-2.758128,47.673051],[-2.759053,47.672767],[-2.759085,47.672757],[-2.759069,47.672681],[-2.75898,47.672516],[-2.758772,47.672336],[-2.758741,47.672294],[-2.758759,47.672068],[-2.758777,47.672042],[-2.758757,47.67183],[-2.758757,47.671826],[-2.758762,47.671672],[-2.758762,47.671668],[-2.758761,47.671627],[-2.758761,47.671526],[-2.758637,47.671255],[-2.758586,47.670982],[-2.758627,47.670843],[-2.75873,47.670724],[-2.758808,47.670717],[-2.758817,47.670653],[-2.758824,47.670606],[-2.758804,47.670386],[-2.758804,47.67038],[-2.758803,47.670194],[-2.758804,47.670172],[-2.759632,47.670101],[-2.761997,47.669877],[-2.761498,47.670418],[-2.761464,47.670803],[-2.760735,47.670993],[-2.760744,47.671073],[-2.760873,47.671066],[-2.760914,47.67165],[-2.761419,47.671636],[-2.761485,47.672563],[-2.76154,47.672575],[-2.762152,47.672545],[-2.76278,47.672956],[-2.763151,47.673238],[-2.763221,47.673277],[-2.764287,47.672577],[-2.764529,47.6724],[-2.764879,47.672194],[-2.764938,47.672137],[-2.765078,47.672055],[-2.765708,47.671643],[-2.765825,47.671585],[-2.765786,47.671516],[-2.765182,47.671065],[-2.765014,47.671176],[-2.764798,47.671127],[-2.764504,47.670929],[-2.764446,47.670873],[-2.764372,47.670807],[-2.764276,47.6707],[-2.764255,47.670644],[-2.764193,47.67051],[-2.764129,47.670405],[-2.76408,47.670323],[-2.763853,47.670285],[-2.763856,47.670232],[-2.7638,47.670176],[-2.76373,47.670157],[-2.763628,47.670153],[-2.763731,47.669615],[-2.765481,47.669438],[-2.765895,47.67005],[-2.765596,47.670149],[-2.764928,47.670564],[-2.764881,47.670618],[-2.764862,47.670661],[-2.764849,47.670732],[-2.764864,47.670794],[-2.7649,47.670844],[-2.765799,47.671508],[-2.76585,47.67158],[-2.765951,47.67158],[-2.766102,47.671675],[-2.766745,47.672123],[-2.767285,47.671744],[-2.76642,47.671151],[-2.767504,47.670425],[-2.767917,47.670712],[-2.768303,47.670974],[-2.7684,47.67103],[-2.768242,47.671121],[-2.768416,47.67124],[-2.768418,47.671224],[-2.768658,47.671221],[-2.768756,47.671156],[-2.768757,47.6711],[-2.769263,47.671461],[-2.769203,47.671457],[-2.769214,47.671807],[-2.768875,47.672037],[-2.768611,47.672216],[-2.767715,47.672781],[-2.768625,47.673435],[-2.769511,47.672856],[-2.770143,47.673295],[-2.770102,47.673315],[-2.770157,47.673353],[-2.769294,47.673906],[-2.768775,47.673556],[-2.767813,47.67419],[-2.765968,47.675396],[-2.765291,47.67581],[-2.765252,47.675979],[-2.765201,47.676836],[-2.763637,47.676765],[-2.763643,47.676699],[-2.763131,47.676684],[-2.762923,47.675869],[-2.763694,47.675885],[-2.763707,47.675307],[-2.763819,47.675287],[-2.764069,47.675168],[-2.764301,47.675018],[-2.764878,47.674644],[-2.76469,47.674518],[-2.763073,47.67338],[-2.762919,47.673455],[-2.762649,47.673555],[-2.762462,47.673581],[-2.762196,47.673587],[-2.761276,47.67345],[-2.759987,47.673247],[-2.759335,47.673157],[-2.759136,47.673123],[-2.758952,47.673123],[-2.758818,47.673144],[-2.758406,47.67328],[-2.758301,47.673321]]]]}}]}